{
 "type": "FeatureCollection",
 "features": [
  {
   "type": "Feature",
   "geometry": {
    "type": "Point",
    "coordinates": [
     -80.34236159999999,
     39.2814213
    ]
   },
   "properties": {
    "slug": "the-return-of-bike-night-at-ritzy-lunch-2026-09-17",
    "name": "The Return of Bike Night at Ritzy Lunch",
    "type": "bike-night",
    "typeLabel": "Bike Day/Night",
    "region": "Mountaineer Country",
    "date": "2026-09-17T12:00:00.000Z",
    "endDate": "2026-09-17T12:00:00.000Z",
    "locationName": "Ritzy Lunch",
    "status": "Free",
    "url": "/events/the-return-of-bike-night-at-ritzy-lunch-2026-09-17",
    "link": null,
    "maps": "https://www.google.com/maps/dir/?api=1&destination=39.2814213,-80.34236159999999"
   }
  },
  {
   "type": "Feature",
   "geometry": {
    "type": "Point",
    "coordinates": [
     -80.4549026,
     38.5976262
    ]
   },
   "properties": {
    "slug": "2-million-bikers-2-dc-resurrection-2026-2026-09-11",
    "name": "2 Million Bikers 2 DC Resurrection 2026",
    "type": "group-ride",
    "typeLabel": "Group Ride",
    "region": "Out of State",
    "date": "2026-09-11T12:00:00.000Z",
    "endDate": null,
    "locationName": "Washington DC",
    "status": "Free",
    "url": "/events/2-million-bikers-2-dc-resurrection-2026-2026-09-11",
    "link": null,
    "maps": "https://www.google.com/maps/dir/?api=1&destination=38.5976262,-80.4549026"
   }
  },
  {
   "type": "Feature",
   "geometry": {
    "type": "Point",
    "coordinates": [
     -78.72575379999999,
     39.307037099999995
    ]
   },
   "properties": {
    "slug": "2nd-annual-teresa-hogbin-coleman-memorial-ride-2026-10-10",
    "name": "2nd Annual Teresa Hogbin Coleman Memorial Ride",
    "type": "charity-ride",
    "typeLabel": "Charity Ride",
    "region": "Potomac Highlands",
    "date": "2026-10-10T12:00:00.000Z",
    "endDate": null,
    "locationName": "KSU",
    "status": "Free",
    "url": "/events/2nd-annual-teresa-hogbin-coleman-memorial-ride-2026-10-10",
    "link": null,
    "maps": "https://www.google.com/maps/dir/?api=1&destination=39.307037099999995,-78.72575379999999"
   }
  },
  {
   "type": "Feature",
   "geometry": {
    "type": "Point",
    "coordinates": [
     -78.7548364,
     39.341184
    ]
   },
   "properties": {
    "slug": "patriots-poker-run-to-flight-93-2026-10-10",
    "name": "Patriots Poker Run to Flight 93",
    "type": "poker-run",
    "typeLabel": "Poker Run",
    "region": "Potomac Highlands",
    "date": "2026-10-10T12:00:00.000Z",
    "endDate": "2026-10-10T12:00:00.000Z",
    "locationName": "American Legion Post 91",
    "status": "Free",
    "url": "/events/patriots-poker-run-to-flight-93-2026-10-10",
    "link": "https://www.facebook.com/yfwpost1101romneywv",
    "maps": "https://www.google.com/maps/dir/?api=1&destination=39.341184,-78.7548364"
   }
  },
  {
   "type": "Feature",
   "geometry": {
    "type": "Point",
    "coordinates": [
     -78.4325015,
     39.3052389
    ]
   },
   "properties": {
    "slug": "9th-annual-ride-supporting-k9s-for-warriors-2026-09-19",
    "name": "9th Annual Ride Supporting K9s For Warriors",
    "type": "charity-ride",
    "typeLabel": "Charity Ride",
    "region": "Potomac Highlands",
    "date": "2026-09-19T12:00:00.000Z",
    "endDate": null,
    "locationName": "The American Legion Post 137",
    "status": "Free",
    "url": "/events/9th-annual-ride-supporting-k9s-for-warriors-2026-09-19",
    "link": null,
    "maps": "https://www.google.com/maps/dir/?api=1&destination=39.3052389,-78.4325015"
   }
  },
  {
   "type": "Feature",
   "geometry": {
    "type": "Point",
    "coordinates": [
     -81.59972800000001,
     38.327427199999995
    ]
   },
   "properties": {
    "slug": "the-valkyries-ladies-club-6th-annual-think-pink-ride-2026-10-04",
    "name": "The Valkyries Ladies Club 6th Annual Think Pink Ride",
    "type": "charity-ride",
    "typeLabel": "Charity Ride",
    "region": "Metro Valley",
    "date": "2026-10-04T12:00:00.000Z",
    "endDate": null,
    "locationName": "CAMC Cancer Center",
    "status": "Free",
    "url": "/events/the-valkyries-ladies-club-6th-annual-think-pink-ride-2026-10-04",
    "link": null,
    "maps": "https://www.google.com/maps/dir/?api=1&destination=38.327427199999995,-81.59972800000001"
   }
  },
  {
   "type": "Feature",
   "geometry": {
    "type": "Point",
    "coordinates": [
     -80.2808099,
     39.3065122
    ]
   },
   "properties": {
    "slug": "bike-day-and-meet-your-match-test-ride-day-2026-09-19",
    "name": "Bike Day and Meet your Match Test Ride Day",
    "type": "bike-night",
    "typeLabel": "Bike Day/Night",
    "region": "Mountaineer Country",
    "date": "2026-09-19T12:00:00.000Z",
    "endDate": null,
    "locationName": "RG's Almost Heaven Harley-Davidson",
    "status": "Free",
    "url": "/events/bike-day-and-meet-your-match-test-ride-day-2026-09-19",
    "link": null,
    "maps": "https://www.google.com/maps/dir/?api=1&destination=39.3065122,-80.2808099"
   }
  },
  {
   "type": "Feature",
   "geometry": {
    "type": "Point",
    "coordinates": [
     -80.09360989999999,
     38.223141
    ]
   },
   "properties": {
    "slug": "bike-night-at-old-mountain-tavern-2026-09-09",
    "name": "Bike Night at Old Mountain Tavern",
    "type": "bike-night",
    "typeLabel": "Bike Day/Night",
    "region": "Potomac Highlands",
    "date": "2026-09-09T12:00:00.000Z",
    "endDate": "2026-09-10T12:00:00.000Z",
    "locationName": "Old Mountain Tavern",
    "status": "Free",
    "url": "/events/bike-night-at-old-mountain-tavern-2026-09-09",
    "link": null,
    "maps": "https://www.google.com/maps/dir/?api=1&destination=38.223141,-80.09360989999999"
   }
  },
  {
   "type": "Feature",
   "geometry": {
    "type": "Point",
    "coordinates": [
     -77.8597175,
     39.288990299999995
    ]
   },
   "properties": {
    "slug": "charles-town-car-show-2026-09-05",
    "name": "Charles Town Car Show",
    "type": "show",
    "typeLabel": "Show",
    "region": "Eastern Panhandle",
    "date": "2026-09-05T12:00:00.000Z",
    "endDate": null,
    "locationName": "Charles Town",
    "status": "Free",
    "url": "/events/charles-town-car-show-2026-09-05",
    "link": null,
    "maps": "https://www.google.com/maps/dir/?api=1&destination=39.288990299999995,-77.8597175"
   }
  },
  {
   "type": "Feature",
   "geometry": {
    "type": "Point",
    "coordinates": [
     -81.4382095,
     39.3807182
    ]
   },
   "properties": {
    "slug": "game-day-garage-pre-game-wvu-vs-uva-2026-09-19",
    "name": "Game Day Garage Pre-Game! WVU vs. UVA",
    "type": "festival",
    "typeLabel": "Festival",
    "region": "Mid-Ohio Valley",
    "date": "2026-09-19T12:00:00.000Z",
    "endDate": "2026-09-19T12:00:00.000Z",
    "locationName": "Mothman Harley-Davidson",
    "status": "Free",
    "url": "/events/game-day-garage-pre-game-wvu-vs-uva-2026-09-19",
    "link": null,
    "maps": "https://www.google.com/maps/dir/?api=1&destination=39.3807182,-81.4382095"
   }
  },
  {
   "type": "Feature",
   "geometry": {
    "type": "Point",
    "coordinates": [
     -79.75239599999999,
     39.508032
    ]
   },
   "properties": {
    "slug": "triple-s-bike-night-2026-09-11",
    "name": "Triple S Bike Night",
    "type": "bike-night",
    "typeLabel": "Bike Day/Night",
    "region": "Mountaineer Country",
    "date": "2026-09-11T12:00:00.000Z",
    "endDate": "2026-09-12T12:00:00.000Z",
    "locationName": "Smokin' Jack's",
    "status": "Free",
    "url": "/events/triple-s-bike-night-2026-09-11",
    "link": null,
    "maps": "https://www.google.com/maps/dir/?api=1&destination=39.508032,-79.75239599999999"
   }
  },
  {
   "type": "Feature",
   "geometry": {
    "type": "Point",
    "coordinates": [
     -81.5459568,
     39.2940119
    ]
   },
   "properties": {
    "slug": "6th-annual-paws-pistons-cruisin-for-critters-2026-09-20",
    "name": "6th Annual Paws & Pistons Cruisin' for Critters",
    "type": "show",
    "typeLabel": "Show",
    "region": "Mid-Ohio Valley",
    "date": "2026-09-20T12:00:00.000Z",
    "endDate": "2026-09-20T12:00:00.000Z",
    "locationName": "Astorg Auto Pre-Owned on Lakeview",
    "status": "Free",
    "url": "/events/6th-annual-paws-pistons-cruisin-for-critters-2026-09-20",
    "link": null,
    "maps": "https://www.google.com/maps/dir/?api=1&destination=39.2940119,-81.5459568"
   }
  },
  {
   "type": "Feature",
   "geometry": {
    "type": "Point",
    "coordinates": [
     -80.8279175,
     38.30382480000001
    ]
   },
   "properties": {
    "slug": "west-virginia-gold-star-mothers-bridge-ride-2026-2026-10-10",
    "name": "West Virginia Gold Star Mothers Bridge Ride 2026",
    "type": "charity-ride",
    "typeLabel": "Charity Ride",
    "region": "Mountain Lakes",
    "date": "2026-10-10T12:00:00.000Z",
    "endDate": null,
    "locationName": "Summersville Arena & Conference Center",
    "status": "Free",
    "url": "/events/west-virginia-gold-star-mothers-bridge-ride-2026-2026-10-10",
    "link": "https://www.bridgeride.org",
    "maps": "https://www.google.com/maps/dir/?api=1&destination=38.30382480000001,-80.8279175"
   }
  },
  {
   "type": "Feature",
   "geometry": {
    "type": "Point",
    "coordinates": [
     -81.3442805,
     38.7716018
    ]
   },
   "properties": {
    "slug": "community-worship-2026-09-19",
    "name": "Community Worship",
    "type": "other",
    "typeLabel": "Other",
    "region": "Mid-Ohio Valley",
    "date": "2026-09-19T12:00:00.000Z",
    "endDate": null,
    "locationName": "Freshwater Park",
    "status": "Free",
    "url": "/events/community-worship-2026-09-19",
    "link": "https://www.facebook.com/events/freshwater-park-spencer-wv/community-worship/1116246384091152/",
    "maps": "https://www.google.com/maps/dir/?api=1&destination=38.7716018,-81.3442805"
   }
  },
  {
   "type": "Feature",
   "geometry": {
    "type": "Point",
    "coordinates": [
     -78.1838848,
     38.9090188
    ]
   },
   "properties": {
    "slug": "ride-all-day-for-sma-2026-10-17",
    "name": "Ride All Day For SMA",
    "type": "charity-ride",
    "typeLabel": "Charity Ride",
    "region": "Out of State",
    "date": "2026-10-17T12:00:00.000Z",
    "endDate": null,
    "locationName": "Gateway Plaza",
    "status": "Free",
    "url": "/events/ride-all-day-for-sma-2026-10-17",
    "link": null,
    "maps": "https://www.google.com/maps/dir/?api=1&destination=38.9090188,-78.1838848"
   }
  },
  {
   "type": "Feature",
   "geometry": {
    "type": "Point",
    "coordinates": [
     -80.0502702,
     38.5013869
    ]
   },
   "properties": {
    "slug": "pow-mia-memorial-ride-ceremony-2026-10-03",
    "name": "POW-MIA Memorial Ride & Ceremony",
    "type": "charity-ride",
    "typeLabel": "Charity Ride",
    "region": "Potomac Highlands",
    "date": "2026-10-03T12:00:00.000Z",
    "endDate": null,
    "locationName": "The Mingo Saloon & Lodge",
    "status": "Free",
    "url": "/events/pow-mia-memorial-ride-ceremony-2026-10-03",
    "link": null,
    "maps": "https://www.google.com/maps/dir/?api=1&destination=38.5013869,-80.0502702"
   }
  },
  {
   "type": "Feature",
   "geometry": {
    "type": "Point",
    "coordinates": [
     -80.9862241,
     39.2801669
    ]
   },
   "properties": {
    "slug": "2026-head-for-the-hills-festival-2026-09-10",
    "name": "2026 Head for the Hills Festival",
    "type": "festival",
    "typeLabel": "Festival",
    "region": "Mid-Ohio Valley",
    "date": "2026-09-10T12:00:00.000Z",
    "endDate": "2026-09-12T12:00:00.000Z",
    "locationName": "Pennsboro Speedway",
    "status": "Free",
    "url": "/events/2026-head-for-the-hills-festival-2026-09-10",
    "link": "www.headforthehillswv.com",
    "maps": "https://www.google.com/maps/dir/?api=1&destination=39.2801669,-80.9862241"
   }
  },
  {
   "type": "Feature",
   "geometry": {
    "type": "Point",
    "coordinates": [
     -80.8381789,
     38.934396199999995
    ]
   },
   "properties": {
    "slug": "bike-night-at-shades-bar-grill-2026-09-15",
    "name": "Bike Night at Shades Bar & Grill",
    "type": "bike-night",
    "typeLabel": "Bike Day/Night",
    "region": "Mountain Lakes",
    "date": "2026-09-15T12:00:00.000Z",
    "endDate": "2026-09-16T12:00:00.000Z",
    "locationName": "Shades Bar & Grill",
    "status": "Free",
    "url": "/events/bike-night-at-shades-bar-grill-2026-09-15",
    "link": null,
    "maps": "https://www.google.com/maps/dir/?api=1&destination=38.934396199999995,-80.8381789"
   }
  },
  {
   "type": "Feature",
   "geometry": {
    "type": "Point",
    "coordinates": [
     -80.2808099,
     39.3065122
    ]
   },
   "properties": {
    "slug": "bike-day-at-rg-s-almost-heaven-harley-davidson-2026-09-19",
    "name": "Bike Day at RG's Almost Heaven Harley-Davidson",
    "type": "bike-night",
    "typeLabel": "Bike Day/Night",
    "region": "Mountaineer Country",
    "date": "2026-09-19T12:00:00.000Z",
    "endDate": "2026-09-19T12:00:00.000Z",
    "locationName": "RG's Almost Heaven Harley-Davidson",
    "status": "Free",
    "url": "/events/bike-day-at-rg-s-almost-heaven-harley-davidson-2026-09-19",
    "link": null,
    "maps": "https://www.google.com/maps/dir/?api=1&destination=39.3065122,-80.2808099"
   }
  },
  {
   "type": "Feature",
   "geometry": {
    "type": "Point",
    "coordinates": [
     -77.8617617,
     39.2881453
    ]
   },
   "properties": {
    "slug": "5th-annual-patriot-ride-2026-09-11",
    "name": "5th Annual Patriot Ride",
    "type": "charity-ride",
    "typeLabel": "Charity Ride",
    "region": "Eastern Panhandle",
    "date": "2026-09-11T12:00:00.000Z",
    "endDate": null,
    "locationName": "ALR Post 71, Charles Town",
    "status": "Free",
    "url": "/events/5th-annual-patriot-ride-2026-09-11",
    "link": null,
    "maps": "https://www.google.com/maps/dir/?api=1&destination=39.2881453,-77.8617617"
   }
  },
  {
   "type": "Feature",
   "geometry": {
    "type": "Point",
    "coordinates": [
     -81.5493273,
     39.2834993
    ]
   },
   "properties": {
    "slug": "odinsons-bike-night-2026-09-03",
    "name": "Odinsons Bike Night",
    "type": "bike-night",
    "typeLabel": "Bike Day/Night",
    "region": "Mid-Ohio Valley",
    "date": "2026-09-03T12:00:00.000Z",
    "endDate": null,
    "locationName": "American Legion Post 15",
    "status": "Free",
    "url": "/events/odinsons-bike-night-2026-09-03",
    "link": null,
    "maps": "https://www.google.com/maps/dir/?api=1&destination=39.2834993,-81.5493273"
   }
  },
  {
   "type": "Feature",
   "geometry": {
    "type": "Point",
    "coordinates": [
     -78.75717860000002,
     39.35489
    ]
   },
   "properties": {
    "slug": "13th-annual-freedom-ride-2026-09-12",
    "name": "13th Annual Freedom Ride",
    "type": "charity-ride",
    "typeLabel": "Charity Ride",
    "region": "Potomac Highlands",
    "date": "2026-09-12T12:00:00.000Z",
    "endDate": "2026-09-12T12:00:00.000Z",
    "locationName": "Romney Cycle",
    "status": "Free",
    "url": "/events/13th-annual-freedom-ride-2026-09-12",
    "link": "facebook.com/VeteransAppreciationandFreedomRide",
    "maps": "https://www.google.com/maps/dir/?api=1&destination=39.35489,-78.75717860000002"
   }
  },
  {
   "type": "Feature",
   "geometry": {
    "type": "Point",
    "coordinates": [
     -81.5059778,
     38.202285599999996
    ]
   },
   "properties": {
    "slug": "west-virginia-gold-star-mothers-kickoff-ride-2026-10-09",
    "name": "West Virginia Gold Star Mothers Kickoff Ride",
    "type": "charity-ride",
    "typeLabel": "Charity Ride",
    "region": "Metro Valley",
    "date": "2026-10-09T12:00:00.000Z",
    "endDate": null,
    "locationName": "Walmart Supercenter, Quincy",
    "status": "Free",
    "url": "/events/west-virginia-gold-star-mothers-kickoff-ride-2026-10-09",
    "link": null,
    "maps": "https://www.google.com/maps/dir/?api=1&destination=38.202285599999996,-81.5059778"
   }
  },
  {
   "type": "Feature",
   "geometry": {
    "type": "Point",
    "coordinates": [
     -81.4382095,
     39.3807182
    ]
   },
   "properties": {
    "slug": "3rd-annual-end-of-summer-bash-2026-10-03",
    "name": "3rd Annual End of Summer Bash",
    "type": "festival",
    "typeLabel": "Festival",
    "region": "Mid-Ohio Valley",
    "date": "2026-10-03T12:00:00.000Z",
    "endDate": "2026-10-04T12:00:00.000Z",
    "locationName": "Mothman Harley-Davidson",
    "status": "Free",
    "url": "/events/3rd-annual-end-of-summer-bash-2026-10-03",
    "link": "www.mothmanhd.com",
    "maps": "https://www.google.com/maps/dir/?api=1&destination=39.3807182,-81.4382095"
   }
  },
  {
   "type": "Feature",
   "geometry": {
    "type": "Point",
    "coordinates": [
     -80.0139465,
     39.6590728
    ]
   },
   "properties": {
    "slug": "operation-activet-5th-annual-celebration-ride-poker-run-2026-08-22",
    "name": "Operation Activet 5th Annual Celebration Ride Poker Run",
    "type": "poker-run",
    "typeLabel": "Poker Run",
    "region": "Mountaineer Country",
    "date": "2026-08-22T12:00:00.000Z",
    "endDate": null,
    "locationName": "Triple S Harley-Davidson",
    "status": "Free",
    "url": "/events/operation-activet-5th-annual-celebration-ride-poker-run-2026-08-22",
    "link": null,
    "maps": "https://www.google.com/maps/dir/?api=1&destination=39.6590728,-80.0139465"
   }
  },
  {
   "type": "Feature",
   "geometry": {
    "type": "Point",
    "coordinates": [
     -82.4327011,
     38.4237059
    ]
   },
   "properties": {
    "slug": "blue-knights-wv-iii-ride-with-gops-xxiv-2026-10-04",
    "name": "Blue Knights WV III Ride with GOPS XXIV",
    "type": "charity-ride",
    "typeLabel": "Charity Ride",
    "region": "Metro Valley",
    "date": "2026-10-04T12:00:00.000Z",
    "endDate": null,
    "locationName": "Buddy's BBQ",
    "status": "Free",
    "url": "/events/blue-knights-wv-iii-ride-with-gops-xxiv-2026-10-04",
    "link": null,
    "maps": "https://www.google.com/maps/dir/?api=1&destination=38.4237059,-82.4327011"
   }
  }
 ]
}
