{"type":"FeatureCollection","name":"WV Tourism travel regions (dissolved from Webflow Travel Regions counties, Census 2010 county shapes)","features":[{"type":"Feature","properties":{"slug":"eastern-panhandle","name":"Eastern Panhandle","labelLng":-78.0251,"labelLat":39.4259},"geometry":{"type":"Polygon","coordinates":[[[-78.4686,39.5168],[-78.4369,39.5391],[-78.4322,39.561],[-78.4585,39.5812],[-78.4302,39.6233],[-78.3552,39.6406],[-78.2712,39.6197],[-78.1828,39.6951],[-78.1078,39.6821],[-78.0746,39.6667],[-78.036,39.6357],[-78.0099,39.6029],[-77.9465,39.5849],[-77.9026,39.5878],[-77.8845,39.5682],[-77.8888,39.5558],[-77.8654,39.5165],[-77.8451,39.4983],[-77.8078,39.4902],[-77.7392,39.3857],[-77.7605,39.3388],[-77.719,39.3211],[-77.7503,39.2893],[-77.7689,39.2565],[-77.7714,39.2368],[-77.8282,39.1323],[-78.3471,39.466],[-78.4686,39.5168]]]}},{"type":"Feature","properties":{"slug":"hatfield-mccoy-mountains","name":"Hatfield-McCoy Mountains","labelLng":-81.9993,"labelLat":37.9567},"geometry":{"type":"Polygon","coordinates":[[[-82.6447,38.1655],[-82.6042,38.2473],[-82.584,38.2464],[-82.5747,38.2639],[-82.5719,38.3158],[-82.5954,38.3827],[-82.5937,38.4218],[-82.5606,38.4044],[-82.5067,38.4101],[-82.344,38.3053],[-82.2979,38.3274],[-82.2647,38.2297],[-82.1768,38.3396],[-82.0471,38.3744],[-82.0483,38.29],[-81.9918,38.2692],[-81.9152,38.3256],[-81.8182,38.3168],[-81.8331,38.2097],[-81.6437,38.2204],[-81.5158,38.1124],[-81.4566,37.9873],[-81.5712,37.928],[-81.5142,37.7912],[-81.6075,37.7887],[-81.7639,37.7523],[-81.7017,37.7014],[-81.8029,37.6605],[-81.8559,37.5489],[-81.8694,37.5378],[-81.8859,37.5368],[-81.8979,37.5244],[-81.9093,37.5269],[-81.9279,37.5121],[-81.9683,37.5378],[-81.9982,37.5431],[-82.0083,37.5334],[-82.0485,37.5311],[-82.1166,37.5596],[-82.1418,37.595],[-82.297,37.6873],[-82.3257,37.7358],[-82.3191,37.7589],[-82.3299,37.7759],[-82.4177,37.8707],[-82.4747,37.9104],[-82.5004,37.9365],[-82.465,37.9768],[-82.4654,37.9847],[-82.5197,38.0085],[-82.5473,38.0611],[-82.6001,38.1173],[-82.6212,38.1232],[-82.6365,38.1379],[-82.6447,38.1655]]]}},{"type":"Feature","properties":{"slug":"metro-valley","name":"Metro Valley","labelLng":-81.7732,"labelLat":38.4998},"geometry":{"type":"Polygon","coordinates":[[[-82.5067,38.4101],[-82.3303,38.4445],[-82.3139,38.4681],[-82.2913,38.579],[-82.2621,38.5982],[-82.1939,38.5931],[-82.1773,38.6038],[-82.1721,38.626],[-82.1883,38.734],[-82.1989,38.7577],[-82.2204,38.7737],[-82.2216,38.7872],[-82.2157,38.7975],[-82.1844,38.8166],[-82.1393,38.8664],[-82.0932,38.971],[-82.0516,38.9944],[-82.036,39.0255],[-82.0176,39.0301],[-82.0023,39.0279],[-81.9356,38.9895],[-81.8985,38.9296],[-81.9266,38.9013],[-81.9269,38.8916],[-81.9086,38.8785],[-81.773,38.6811],[-81.7477,38.6841],[-81.633,38.5546],[-81.5222,38.6127],[-81.4653,38.5499],[-81.1941,38.5276],[-81.2838,38.472],[-81.2314,38.2637],[-81.3315,38.1675],[-81.3808,37.9691],[-81.4143,37.9735],[-81.4385,37.968],[-81.4566,37.9873],[-81.5158,38.1124],[-81.6436,38.2203],[-81.8335,38.2096],[-81.8186,38.3168],[-81.9152,38.3256],[-81.9918,38.2691],[-82.0486,38.2901],[-82.0477,38.3743],[-82.1768,38.3396],[-82.2648,38.2292],[-82.2978,38.3271],[-82.3439,38.3052],[-82.5067,38.4101]]]}},{"type":"Feature","properties":{"slug":"mid-ohio-valley","name":"Mid-Ohio Valley","labelLng":-81.3931,"labelLat":38.9716},"geometry":{"type":"Polygon","coordinates":[[[-81.9086,38.8785],[-81.8748,38.8812],[-81.76,38.9259],[-81.7561,38.9336],[-81.7643,39.0153],[-81.8034,39.0477],[-81.8142,39.0735],[-81.8124,39.0821],[-81.7473,39.0956],[-81.7499,39.1865],[-81.74,39.1907],[-81.6957,39.2429],[-81.6058,39.2759],[-81.5423,39.3529],[-81.4561,39.4093],[-81.4356,39.4085],[-81.4127,39.3946],[-81.3938,39.3517],[-81.3846,39.3435],[-81.3569,39.3432],[-81.2707,39.3859],[-81.2156,39.3886],[-81.1277,39.4649],[-81.0293,39.4674],[-81.0078,39.3513],[-80.9321,39.3891],[-80.8887,39.2943],[-80.9136,39.2726],[-80.813,39.1094],[-81.0335,39.0096],[-81.0028,38.846],[-81.0565,38.7932],[-80.985,38.7179],[-81.1308,38.566],[-81.1941,38.5276],[-81.4654,38.5499],[-81.5223,38.6126],[-81.6328,38.5544],[-81.7475,38.684],[-81.7728,38.6808],[-81.9086,38.8785]]]}},{"type":"Feature","properties":{"slug":"mountain-lakes","name":"Mountain Lakes","labelLng":-80.6561,"labelLat":38.6305},"geometry":{"type":"Polygon","coordinates":[[[-81.2839,38.472],[-81.1308,38.566],[-80.9852,38.7177],[-81.0567,38.7933],[-81.0028,38.8461],[-81.0336,39.0096],[-80.813,39.1094],[-80.7283,39.0957],[-80.5961,39.1671],[-80.3002,39.1039],[-80.249,39.1008],[-80.2404,39.1131],[-80.2272,39.1128],[-80.1282,39.0378],[-80.0558,39.0372],[-80.0851,38.9472],[-80.1261,38.7458],[-80.2368,38.7437],[-80.2799,38.695],[-80.1839,38.5254],[-80.2455,38.3885],[-80.3521,38.3453],[-80.36,38.2258],[-80.4367,38.2672],[-80.712,38.0791],[-80.8822,38.1035],[-80.9835,38.2225],[-81.0705,38.2101],[-81.2316,38.2635],[-81.2839,38.472]]]}},{"type":"Feature","properties":{"slug":"mountaineer-country","name":"Mountaineer Country","labelLng":-80.1279,"labelLat":39.3617},"geometry":{"type":"Polygon","coordinates":[[[-80.9138,39.2729],[-80.8887,39.2943],[-80.6186,39.4504],[-80.5446,39.4291],[-80.5157,39.4378],[-80.5127,39.4586],[-80.494,39.4615],[-80.4982,39.5633],[-80.3959,39.6374],[-80.4214,39.7212],[-79.4767,39.7211],[-79.4872,39.1949],[-79.6873,39.2714],[-79.8095,39.2306],[-79.8251,39.1158],[-79.8961,38.9734],[-80.0851,38.9472],[-80.0561,39.037],[-80.1282,39.0378],[-80.2273,39.1128],[-80.2404,39.1131],[-80.2488,39.1008],[-80.3002,39.1039],[-80.596,39.167],[-80.7283,39.0957],[-80.813,39.1094],[-80.9138,39.2729]]]}},{"type":"Feature","properties":{"slug":"new-river-greenbrier-valley","name":"New River-Greenbrier Valley","labelLng":-81.0028,"labelLat":37.7356},"geometry":{"type":"Polygon","coordinates":[[[-81.9966,37.4767],[-81.9426,37.5088],[-81.9226,37.512],[-81.9094,37.527],[-81.8978,37.5245],[-81.886,37.5367],[-81.8695,37.5378],[-81.856,37.5489],[-81.8029,37.6605],[-81.7023,37.7012],[-81.7647,37.7521],[-81.6075,37.7887],[-81.5146,37.7913],[-81.5713,37.9281],[-81.4566,37.9873],[-81.4385,37.9681],[-81.4143,37.9735],[-81.3809,37.9693],[-81.3315,38.1676],[-81.2316,38.2635],[-81.0705,38.2101],[-80.9835,38.2225],[-80.8821,38.1035],[-80.7121,38.0792],[-80.4365,38.2673],[-80.36,38.2258],[-80.3632,38.1143],[-80.2647,38.0466],[-80.1692,38.0361],[-79.9598,38.0637],[-80.0025,37.9928],[-80.1305,37.8932],[-80.1622,37.8751],[-80.2574,37.7562],[-80.2639,37.7191],[-80.296,37.6914],[-80.2675,37.6461],[-80.221,37.6278],[-80.2403,37.607],[-80.2887,37.582],[-80.3124,37.5462],[-80.3301,37.5363],[-80.3148,37.5009],[-80.4756,37.423],[-80.4949,37.4351],[-80.5117,37.4815],[-80.7701,37.3724],[-80.7769,37.3842],[-80.8117,37.4075],[-80.8594,37.4289],[-80.8725,37.3724],[-80.8495,37.3469],[-80.9005,37.315],[-80.9665,37.2922],[-81.0347,37.2907],[-81.1126,37.2785],[-81.167,37.2629],[-81.2251,37.2349],[-81.3201,37.2993],[-81.3624,37.3376],[-81.3773,37.3184],[-81.3882,37.3198],[-81.4097,37.2848],[-81.504,37.2502],[-81.5073,37.2338],[-81.5573,37.2077],[-81.6786,37.2025],[-81.6836,37.2115],[-81.728,37.2397],[-81.7443,37.2442],[-81.7476,37.2641],[-81.7579,37.2741],[-81.8541,37.2914],[-81.8543,37.3006],[-81.8788,37.3318],[-81.8938,37.3301],[-81.8996,37.3411],[-81.9266,37.3589],[-81.9339,37.3727],[-81.9275,37.4132],[-81.9357,37.4384],[-81.987,37.4549],[-81.9966,37.4767]]]}},{"type":"Feature","properties":{"slug":"northern-panhandle","name":"Northern Panhandle","labelLng":-80.6468,"labelLat":39.9417},"geometry":{"type":"Polygon","coordinates":[[[-81.1277,39.4649],[-81.0201,39.5554],[-80.9438,39.6069],[-80.8804,39.6207],[-80.8319,39.7056],[-80.8062,39.8972],[-80.8087,39.9126],[-80.7402,39.9709],[-80.7331,40.0588],[-80.7055,40.153],[-80.6521,40.245],[-80.6167,40.2803],[-80.5999,40.3176],[-80.6192,40.3818],[-80.5993,40.4825],[-80.6103,40.491],[-80.668,40.5825],[-80.6272,40.6199],[-80.5608,40.6237],[-80.519,40.6388],[-80.5193,39.7219],[-80.4214,39.7212],[-80.3958,39.6373],[-80.4981,39.5633],[-80.494,39.4611],[-80.5126,39.4585],[-80.5156,39.4377],[-80.5445,39.4291],[-80.6187,39.4503],[-80.8887,39.2943],[-80.9322,39.3889],[-81.0078,39.3509],[-81.0295,39.4673],[-81.1277,39.4649]]]}},{"type":"Feature","properties":{"slug":"potomac-highlands","name":"Potomac Highlands","labelLng":-79.5699,"labelLat":38.8142},"geometry":{"type":"Polygon","coordinates":[[[-80.3633,38.1143],[-80.3522,38.3453],[-80.2455,38.3885],[-80.184,38.5253],[-80.2801,38.6949],[-80.2368,38.7438],[-80.1261,38.746],[-80.0851,38.9472],[-79.8961,38.9735],[-79.8251,39.1158],[-79.8097,39.2305],[-79.6873,39.2714],[-79.4875,39.1952],[-79.4869,39.206],[-79.4029,39.2501],[-79.2569,39.3561],[-79.2132,39.3679],[-79.0844,39.4714],[-79.0424,39.4793],[-79.0257,39.4655],[-78.9688,39.4417],[-78.8747,39.5226],[-78.8248,39.5902],[-78.7875,39.6275],[-78.7605,39.61],[-78.7719,39.594],[-78.7674,39.5874],[-78.6762,39.5406],[-78.566,39.5194],[-78.4686,39.5168],[-78.3471,39.466],[-78.3622,39.3582],[-78.3405,39.3535],[-78.3997,39.2439],[-78.4384,39.1983],[-78.4107,39.172],[-78.4394,39.1322],[-78.4599,39.1134],[-78.5081,39.0886],[-78.5715,39.0323],[-78.5542,39.0197],[-78.6017,38.9646],[-78.7109,38.9102],[-78.7204,38.9223],[-78.788,38.8852],[-78.8693,38.763],[-78.9937,38.8499],[-78.9997,38.8462],[-79.0553,38.7822],[-79.0573,38.7614],[-79.0923,38.6992],[-79.147,38.6256],[-79.21,38.4942],[-79.2674,38.4383],[-79.2823,38.4311],[-79.2803,38.4255],[-79.3123,38.4119],[-79.4766,38.4572],[-79.5369,38.5509],[-79.6488,38.5913],[-79.6691,38.5109],[-79.6989,38.4751],[-79.6896,38.4425],[-79.7317,38.3741],[-79.8087,38.3093],[-79.7889,38.2687],[-79.921,38.1805],[-79.9253,38.1505],[-79.9383,38.1305],[-79.931,38.1014],[-79.9598,38.0637],[-80.1692,38.0361],[-80.2646,38.0466],[-80.3633,38.1143]]]}}]}