{
 "type": "FeatureCollection",
 "metadata": {
  "name": "West Virginia Bikers — all published routes",
  "purpose": "Feeds the /routes index map. Lines are simplified to 0.15 mi; route pages use the full-fidelity per-route feed.",
  "contract": "kind=route (line) and kind=route-start (point)",
  "count": 6
 },
 "features": [
  {
   "type": "Feature",
   "geometry": {
    "type": "MultiLineString",
    "coordinates": [
     [
      [
       -78.59622,
       39.309532
      ],
      [
       -78.553335,
       39.361475
      ],
      [
       -78.522854,
       39.373239
      ],
      [
       -78.553335,
       39.361475
      ],
      [
       -78.603727,
       39.300318
      ],
      [
       -78.617725,
       39.297282
      ],
      [
       -78.626503,
       39.300203
      ],
      [
       -78.643025,
       39.29333
      ],
      [
       -78.656259,
       39.302058
      ],
      [
       -78.658986,
       39.314984
      ],
      [
       -78.682139,
       39.312053
      ],
      [
       -78.691109,
       39.316846
      ],
      [
       -78.695202,
       39.326677
      ],
      [
       -78.711213,
       39.330526
      ],
      [
       -78.723173,
       39.324242
      ],
      [
       -78.759693,
       39.342941
      ],
      [
       -78.784957,
       39.336966
      ],
      [
       -78.795774,
       39.327746
      ],
      [
       -78.811901,
       39.335226
      ],
      [
       -78.825911,
       39.317134
      ],
      [
       -78.847002,
       39.313474
      ],
      [
       -78.866835,
       39.313378
      ],
      [
       -78.884085,
       39.329123
      ],
      [
       -78.888713,
       39.33108
      ],
      [
       -78.897055,
       39.328403
      ],
      [
       -78.901364,
       39.334451
      ],
      [
       -78.911147,
       39.337265
      ],
      [
       -78.937583,
       39.340814
      ],
      [
       -78.956782,
       39.335139
      ],
      [
       -78.966991,
       39.336191
      ],
      [
       -78.986763,
       39.344576
      ],
      [
       -79.006767,
       39.364594
      ],
      [
       -79.009757,
       39.372486
      ],
      [
       -79.004949,
       39.389383
      ],
      [
       -79.012489,
       39.395807
      ],
      [
       -79.001729,
       39.410908
      ]
     ],
     [
      [
       -79.001729,
       39.410908
      ],
      [
       -78.995607,
       39.42445
      ],
      [
       -78.975374,
       39.441647
      ],
      [
       -78.966231,
       39.436881
      ],
      [
       -78.957404,
       39.437819
      ],
      [
       -78.953063,
       39.440998
      ],
      [
       -78.954141,
       39.451084
      ],
      [
       -78.947393,
       39.457275
      ],
      [
       -78.939458,
       39.458031
      ],
      [
       -78.928823,
       39.469943
      ],
      [
       -78.918921,
       39.465499
      ],
      [
       -78.908813,
       39.46809
      ],
      [
       -78.872345,
       39.514619
      ],
      [
       -78.85597,
       39.523955
      ],
      [
       -78.857909,
       39.528399
      ],
      [
       -78.823998,
       39.553312
      ],
      [
       -78.810785,
       39.543726
      ],
      [
       -78.806778,
       39.536138
      ],
      [
       -78.766723,
       39.517567
      ],
      [
       -78.772627,
       39.507074
      ],
      [
       -78.746713,
       39.483698
      ],
      [
       -78.722338,
       39.468699
      ],
      [
       -78.70106,
       39.463881
      ],
      [
       -78.696338,
       39.4521
      ],
      [
       -78.680556,
       39.445335
      ],
      [
       -78.676831,
       39.439497
      ],
      [
       -78.654969,
       39.447149
      ],
      [
       -78.650878,
       39.452933
      ],
      [
       -78.641793,
       39.456016
      ],
      [
       -78.623797,
       39.447459
      ],
      [
       -78.610778,
       39.450597
      ],
      [
       -78.609564,
       39.438458
      ],
      [
       -78.596767,
       39.428034
      ],
      [
       -78.586126,
       39.425349
      ],
      [
       -78.581624,
       39.419103
      ],
      [
       -78.566555,
       39.417669
      ],
      [
       -78.551639,
       39.401574
      ],
      [
       -78.550203,
       39.388887
      ],
      [
       -78.526543,
       39.379163
      ],
      [
       -78.522445,
       39.373333
      ],
      [
       -78.553335,
       39.361475
      ],
      [
       -78.59622,
       39.309532
      ]
     ]
    ]
   },
   "properties": {
    "kind": "route",
    "slug": "the-mountain-store-loop",
    "name": "The Mountain Store Loop",
    "miles": 92,
    "rideTime": "3-4 hours",
    "difficulty": "Beginner",
    "surface": "Paved",
    "region": "Potomac Highlands",
    "secondaryRegion": "",
    "short": "A 92-mile, two-day loop through Hampshire and Mineral County back roads, with an overnight in Keyser. An easy-paced ride built around small-town stops.",
    "image": null,
    "stops": 2,
    "nearby": 0,
    "url": "/routes/the-mountain-store-loop"
   }
  },
  {
   "type": "Feature",
   "geometry": {
    "type": "Point",
    "coordinates": [
     -78.59622,
     39.309532
    ]
   },
   "properties": {
    "kind": "route-start",
    "slug": "the-mountain-store-loop",
    "name": "The Mountain Store Loop",
    "miles": 92,
    "region": "Potomac Highlands",
    "url": "/routes/the-mountain-store-loop"
   }
  },
  {
   "type": "Feature",
   "geometry": {
    "type": "LineString",
    "coordinates": [
     [
      -79.683648,
      39.471758
     ],
     [
      -79.67454,
      39.470039
     ],
     [
      -79.685244,
      39.4625
     ],
     [
      -79.68744,
      39.456507
     ],
     [
      -79.679436,
      39.445922
     ],
     [
      -79.687885,
      39.428733
     ],
     [
      -79.688596,
      39.411992
     ],
     [
      -79.680745,
      39.401795
     ],
     [
      -79.684645,
      39.39768
     ],
     [
      -79.700001,
      39.396741
     ],
     [
      -79.706256,
      39.37959
     ],
     [
      -79.69013,
      39.353784
     ],
     [
      -79.682596,
      39.348351
     ],
     [
      -79.670835,
      39.348557
     ],
     [
      -79.669339,
      39.345023
     ],
     [
      -79.692913,
      39.33249
     ],
     [
      -79.694617,
      39.326592
     ],
     [
      -79.688802,
      39.319067
     ],
     [
      -79.71531,
      39.320997
     ],
     [
      -79.735383,
      39.334934
     ],
     [
      -79.739242,
      39.329495
     ],
     [
      -79.74557,
      39.331029
     ],
     [
      -79.749906,
      39.326032
     ],
     [
      -79.758948,
      39.327478
     ],
     [
      -79.767619,
      39.335151
     ],
     [
      -79.790212,
      39.333247
     ],
     [
      -79.801637,
      39.324581
     ],
     [
      -79.821516,
      39.330283
     ],
     [
      -79.843424,
      39.328811
     ],
     [
      -79.856474,
      39.338556
     ],
     [
      -79.868167,
      39.333405
     ],
     [
      -79.889836,
      39.332235
     ],
     [
      -79.901693,
      39.336774
     ],
     [
      -79.903846,
      39.329934
     ],
     [
      -79.925163,
      39.329388
     ],
     [
      -79.940609,
      39.345058
     ],
     [
      -79.98973,
      39.34123
     ],
     [
      -80.003769,
      39.34646
     ],
     [
      -80.010887,
      39.338605
     ],
     [
      -80.037768,
      39.347229
     ],
     [
      -80.037776,
      39.355335
     ],
     [
      -80.051039,
      39.354863
     ],
     [
      -80.05818,
      39.358514
     ],
     [
      -80.057744,
      39.362031
     ],
     [
      -80.041355,
      39.367506
     ],
     [
      -80.039173,
      39.373621
     ],
     [
      -80.028688,
      39.3788
     ],
     [
      -80.028279,
      39.384984
     ],
     [
      -80.040609,
      39.387892
     ],
     [
      -80.039782,
      39.392475
     ],
     [
      -80.057785,
      39.415639
     ],
     [
      -80.065388,
      39.414533
     ],
     [
      -80.082606,
      39.422127
     ],
     [
      -80.090219,
      39.431498
     ],
     [
      -80.093156,
      39.44825
     ],
     [
      -80.11518,
      39.454601
     ],
     [
      -80.119101,
      39.470041
     ],
     [
      -80.128965,
      39.465849
     ],
     [
      -80.137966,
      39.480315
     ],
     [
      -80.143312,
      39.485826
     ],
     [
      -80.154669,
      39.488853
     ],
     [
      -80.157111,
      39.495681
     ],
     [
      -80.184029,
      39.490931
     ],
     [
      -80.187428,
      39.497114
     ],
     [
      -80.20492,
      39.499811
     ],
     [
      -80.210066,
      39.508276
     ],
     [
      -80.221081,
      39.511756
     ],
     [
      -80.229527,
      39.506733
     ],
     [
      -80.243666,
      39.512598
     ],
     [
      -80.260416,
      39.512796
     ],
     [
      -80.284687,
      39.504937
     ],
     [
      -80.32964,
      39.525225
     ],
     [
      -80.342052,
      39.526652
     ],
     [
      -80.343433,
      39.545013
     ],
     [
      -80.354414,
      39.555843
     ],
     [
      -80.355018,
      39.570005
     ],
     [
      -80.363944,
      39.572587
     ],
     [
      -80.369103,
      39.584552
     ],
     [
      -80.384728,
      39.600069
     ],
     [
      -80.415891,
      39.616415
     ],
     [
      -80.422929,
      39.629117
     ],
     [
      -80.41776,
      39.648095
     ],
     [
      -80.424397,
      39.657387
     ],
     [
      -80.40467,
      39.662824
     ],
     [
      -80.399256,
      39.654974
     ],
     [
      -80.39127,
      39.659074
     ],
     [
      -80.384165,
      39.657247
     ],
     [
      -80.357657,
      39.678414
     ],
     [
      -80.344898,
      39.679361
     ],
     [
      -80.338093,
      39.675417
     ],
     [
      -80.328828,
      39.687209
     ],
     [
      -80.316651,
      39.691564
     ],
     [
      -80.306761,
      39.700692
     ],
     [
      -80.289136,
      39.708015
     ],
     [
      -80.276584,
      39.701804
     ],
     [
      -80.268829,
      39.705902
     ],
     [
      -80.257319,
      39.703175
     ],
     [
      -80.254161,
      39.710946
     ],
     [
      -80.237937,
      39.720884
     ],
     [
      -80.228198,
      39.717417
     ],
     [
      -80.201101,
      39.721129
     ],
     [
      -80.19749,
      39.715616
     ],
     [
      -80.175109,
      39.706434
     ],
     [
      -80.164207,
      39.708483
     ],
     [
      -80.15943,
      39.712982
     ],
     [
      -80.147471,
      39.706866
     ],
     [
      -80.140471,
      39.712851
     ],
     [
      -80.12696,
      39.708087
     ],
     [
      -80.119917,
      39.714879
     ],
     [
      -80.115475,
      39.708529
     ],
     [
      -80.117992,
      39.699107
     ],
     [
      -80.096062,
      39.665335
     ],
     [
      -80.08302,
      39.671033
     ],
     [
      -80.070402,
      39.66488
     ],
     [
      -80.029199,
      39.668675
     ],
     [
      -80.001106,
      39.659321
     ],
     [
      -80.012499,
      39.655508
     ],
     [
      -80.005683,
      39.642878
     ],
     [
      -79.988764,
      39.627511
     ],
     [
      -79.993155,
      39.605328
     ],
     [
      -79.979927,
      39.592472
     ],
     [
      -79.977517,
      39.578984
     ],
     [
      -79.933756,
      39.590712
     ],
     [
      -79.929815,
      39.59593
     ],
     [
      -79.930788,
      39.606664
     ],
     [
      -79.920259,
      39.612944
     ],
     [
      -79.914692,
      39.604044
     ],
     [
      -79.886086,
      39.609561
     ],
     [
      -79.86276,
      39.596139
     ],
     [
      -79.86151,
      39.591836
     ],
     [
      -79.868012,
      39.583554
     ],
     [
      -79.859527,
      39.576751
     ],
     [
      -79.808606,
      39.561597
     ],
     [
      -79.797729,
      39.553747
     ],
     [
      -79.80083,
      39.542423
     ],
     [
      -79.795106,
      39.518099
     ],
     [
      -79.797635,
      39.509147
     ],
     [
      -79.754637,
      39.509831
     ],
     [
      -79.750736,
      39.497154
     ],
     [
      -79.739246,
      39.485811
     ],
     [
      -79.683648,
      39.471758
     ]
    ]
   },
   "properties": {
    "kind": "route",
    "slug": "the-cheat-river-loop",
    "name": "The Cheat River Loop",
    "miles": 143,
    "rideTime": "5-6 hours",
    "difficulty": "Beginner",
    "surface": "Paved",
    "region": "Mountaineer Country",
    "secondaryRegion": "",
    "short": "A 143-mile Mountaineer Country loop through Rowlesburg, Grafton, Mannington, and Core, passing the birthplace of Mother's Day, a working dam, and a century-old round barn. A full day for riders who want distance.",
    "image": null,
    "stops": 5,
    "nearby": 7,
    "url": "/routes/the-cheat-river-loop"
   }
  },
  {
   "type": "Feature",
   "geometry": {
    "type": "Point",
    "coordinates": [
     -79.683648,
     39.471758
    ]
   },
   "properties": {
    "kind": "route-start",
    "slug": "the-cheat-river-loop",
    "name": "The Cheat River Loop",
    "miles": 143,
    "region": "Mountaineer Country",
    "url": "/routes/the-cheat-river-loop"
   }
  },
  {
   "type": "Feature",
   "geometry": {
    "type": "LineString",
    "coordinates": [
     [
      -78.236168,
      39.623334
     ],
     [
      -78.22602,
      39.629293
     ],
     [
      -78.265927,
      39.558739
     ],
     [
      -78.312249,
      39.462564
     ],
     [
      -78.281676,
      39.450143
     ],
     [
      -78.282876,
      39.444275
     ],
     [
      -78.267586,
      39.447864
     ],
     [
      -78.25307,
      39.435938
     ],
     [
      -78.232635,
      39.443017
     ],
     [
      -78.217154,
      39.438666
     ],
     [
      -78.208989,
      39.440311
     ],
     [
      -78.208972,
      39.437162
     ],
     [
      -78.199303,
      39.447122
     ],
     [
      -78.197483,
      39.445312
     ],
     [
      -78.182085,
      39.451791
     ],
     [
      -78.168617,
      39.460557
     ],
     [
      -78.16908,
      39.451767
     ],
     [
      -78.14837,
      39.452512
     ],
     [
      -78.116525,
      39.434985
     ],
     [
      -78.115844,
      39.424169
     ],
     [
      -78.108777,
      39.418218
     ],
     [
      -78.116741,
      39.402693
     ],
     [
      -78.111038,
      39.39962
     ],
     [
      -78.111561,
      39.380442
     ],
     [
      -78.099579,
      39.375299
     ],
     [
      -78.092946,
      39.367842
     ],
     [
      -78.057481,
      39.359971
     ],
     [
      -78.046096,
      39.362664
     ],
     [
      -78.036565,
      39.360561
     ],
     [
      -78.014681,
      39.331659
     ],
     [
      -77.985079,
      39.318186
     ],
     [
      -77.972002,
      39.30555
     ],
     [
      -77.915627,
      39.303827
     ],
     [
      -77.888086,
      39.290809
     ],
     [
      -77.867681,
      39.286461
     ],
     [
      -77.816037,
      39.303003
     ],
     [
      -77.838657,
      39.296104
     ],
     [
      -77.856499,
      39.331908
     ],
     [
      -77.855722,
      39.353394
     ],
     [
      -77.893947,
      39.380614
     ],
     [
      -77.894364,
      39.392561
     ],
     [
      -77.918343,
      39.394865
     ],
     [
      -77.931896,
      39.422133
     ],
     [
      -77.967284,
      39.441745
     ],
     [
      -77.988184,
      39.443572
     ],
     [
      -77.988953,
      39.470367
     ],
     [
      -77.971597,
      39.490339
     ],
     [
      -77.956869,
      39.495989
     ],
     [
      -77.966824,
      39.502431
     ],
     [
      -77.989529,
      39.548944
     ],
     [
      -77.997831,
      39.557437
     ],
     [
      -78.023238,
      39.554154
     ],
     [
      -78.036262,
      39.558299
     ],
     [
      -78.039501,
      39.578429
     ],
     [
      -78.064338,
      39.591349
     ],
     [
      -78.070303,
      39.603403
     ],
     [
      -78.090281,
      39.619649
     ],
     [
      -78.094547,
      39.629749
     ],
     [
      -78.10622,
      39.632353
     ],
     [
      -78.115296,
      39.639115
     ],
     [
      -78.120867,
      39.637081
     ],
     [
      -78.128427,
      39.639486
     ],
     [
      -78.146269,
      39.632944
     ],
     [
      -78.154363,
      39.640569
     ],
     [
      -78.162057,
      39.633941
     ],
     [
      -78.186501,
      39.624208
     ],
     [
      -78.203907,
      39.624727
     ],
     [
      -78.214988,
      39.61842
     ],
     [
      -78.229769,
      39.623967
     ],
     [
      -78.227139,
      39.629759
     ],
     [
      -78.236168,
      39.623334
     ]
    ]
   },
   "properties": {
    "kind": "route",
    "slug": "mills-gap-mountain-loop",
    "name": "Mills Gap Mountain Loop",
    "miles": 96,
    "rideTime": "3-4 hours",
    "difficulty": "Intermediate",
    "surface": "Paved",
    "region": "Eastern Panhandle",
    "secondaryRegion": "",
    "short": "A 96-mile Eastern Panhandle loop along the Washington Heritage Trail, crossing Mills Gap and closing out at a Berkeley Springs roadhouse. A full day of mountain views and gap-road curves.",
    "image": null,
    "stops": 2,
    "nearby": 1,
    "url": "/routes/mills-gap-mountain-loop"
   }
  },
  {
   "type": "Feature",
   "geometry": {
    "type": "Point",
    "coordinates": [
     -78.236168,
     39.623334
    ]
   },
   "properties": {
    "kind": "route-start",
    "slug": "mills-gap-mountain-loop",
    "name": "Mills Gap Mountain Loop",
    "miles": 96,
    "region": "Eastern Panhandle",
    "url": "/routes/mills-gap-mountain-loop"
   }
  },
  {
   "type": "Feature",
   "geometry": {
    "type": "LineString",
    "coordinates": [
     [
      -82.195502,
      38.285619
     ],
     [
      -82.206508,
      38.265217
     ],
     [
      -82.190452,
      38.249996
     ],
     [
      -82.205049,
      38.237925
     ],
     [
      -82.20387,
      38.222831
     ],
     [
      -82.186928,
      38.20981
     ],
     [
      -82.190965,
      38.197281
     ],
     [
      -82.180186,
      38.186874
     ],
     [
      -82.176172,
      38.161589
     ],
     [
      -82.183937,
      38.146466
     ],
     [
      -82.177818,
      38.134874
     ],
     [
      -82.193301,
      38.12821
     ],
     [
      -82.194999,
      38.124277
     ],
     [
      -82.181459,
      38.118609
     ],
     [
      -82.180114,
      38.105609
     ],
     [
      -82.165909,
      38.092939
     ],
     [
      -82.166587,
      38.069014
     ],
     [
      -82.160763,
      38.065608
     ],
     [
      -82.159913,
      38.055682
     ],
     [
      -82.157201,
      38.05743
     ],
     [
      -82.157042,
      38.053933
     ],
     [
      -82.145342,
      38.05265
     ],
     [
      -82.143946,
      38.039333
     ],
     [
      -82.133421,
      38.036402
     ],
     [
      -82.13163,
      38.029179
     ],
     [
      -82.113976,
      38.029674
     ],
     [
      -82.068256,
      38.007302
     ],
     [
      -82.062363,
      38.014908
     ],
     [
      -82.057644,
      38.015118
     ],
     [
      -82.054436,
      38.008947
     ],
     [
      -82.046699,
      38.008728
     ],
     [
      -82.040521,
      38.003142
     ],
     [
      -82.037973,
      37.99783
     ],
     [
      -82.041373,
      37.991799
     ],
     [
      -82.031519,
      37.986769
     ],
     [
      -82.037312,
      37.976169
     ],
     [
      -82.019303,
      37.980076
     ],
     [
      -82.018714,
      37.969765
     ],
     [
      -82.014541,
      37.974292
     ],
     [
      -81.998756,
      37.972401
     ],
     [
      -81.982991,
      37.991958
     ],
     [
      -81.957015,
      37.984855
     ],
     [
      -81.936815,
      37.987659
     ],
     [
      -81.911606,
      37.998235
     ],
     [
      -81.89809,
      37.995226
     ],
     [
      -81.895083,
      38.005594
     ],
     [
      -81.873897,
      38.018878
     ],
     [
      -81.874294,
      38.039277
     ],
     [
      -81.867854,
      38.053323
     ],
     [
      -81.846405,
      38.065932
     ],
     [
      -81.836096,
      38.089224
     ],
     [
      -81.839521,
      38.100646
     ],
     [
      -81.849342,
      38.108282
     ],
     [
      -81.840451,
      38.117967
     ],
     [
      -81.843618,
      38.126795
     ],
     [
      -81.835382,
      38.135663
     ],
     [
      -81.845069,
      38.141603
     ],
     [
      -81.844986,
      38.152903
     ],
     [
      -81.863512,
      38.155423
     ],
     [
      -81.867462,
      38.164368
     ],
     [
      -81.884752,
      38.168357
     ],
     [
      -81.898713,
      38.159196
     ],
     [
      -81.909328,
      38.164572
     ],
     [
      -81.922831,
      38.165724
     ],
     [
      -81.936296,
      38.185997
     ],
     [
      -81.93612,
      38.19699
     ],
     [
      -81.966401,
      38.217804
     ],
     [
      -81.967675,
      38.232564
     ],
     [
      -81.978353,
      38.230717
     ],
     [
      -81.991257,
      38.238868
     ],
     [
      -81.999987,
      38.235603
     ],
     [
      -82.008775,
      38.242268
     ],
     [
      -82.030312,
      38.248127
     ],
     [
      -82.032607,
      38.253509
     ],
     [
      -82.038405,
      38.252622
     ],
     [
      -82.041739,
      38.262064
     ],
     [
      -82.048949,
      38.262308
     ],
     [
      -82.054488,
      38.269922
     ],
     [
      -82.067523,
      38.269108
     ],
     [
      -82.072802,
      38.272233
     ],
     [
      -82.071157,
      38.279415
     ],
     [
      -82.089808,
      38.282851
     ],
     [
      -82.103631,
      38.276741
     ],
     [
      -82.141565,
      38.28224
     ],
     [
      -82.151376,
      38.278082
     ],
     [
      -82.153461,
      38.281416
     ],
     [
      -82.166937,
      38.28389
     ],
     [
      -82.185606,
      38.282802
     ],
     [
      -82.195502,
      38.285619
     ]
    ]
   },
   "properties": {
    "kind": "route",
    "slug": "little-coal-river-scenic-loop",
    "name": "Little Coal River Scenic Loop",
    "miles": 83,
    "rideTime": "2-3 hours",
    "difficulty": "Intermediate",
    "surface": "Paved",
    "region": "Hatfield-McCoy Mountains",
    "secondaryRegion": "",
    "short": "An 83-mile loop through Lincoln and Logan County coal country, anchored by Chief Logan State Park and the Little Coal River. A flexible half-day or full-day ride depending on how long you linger.",
    "image": null,
    "stops": 1,
    "nearby": 0,
    "url": "/routes/little-coal-river-scenic-loop"
   }
  },
  {
   "type": "Feature",
   "geometry": {
    "type": "Point",
    "coordinates": [
     -82.195502,
     38.285619
    ]
   },
   "properties": {
    "kind": "route-start",
    "slug": "little-coal-river-scenic-loop",
    "name": "Little Coal River Scenic Loop",
    "miles": 83,
    "region": "Hatfield-McCoy Mountains",
    "url": "/routes/little-coal-river-scenic-loop"
   }
  },
  {
   "type": "Feature",
   "geometry": {
    "type": "LineString",
    "coordinates": [
     [
      -81.50754,
      37.426698
     ],
     [
      -81.506106,
      37.430448
     ],
     [
      -81.512072,
      37.422898
     ],
     [
      -81.517323,
      37.42199
     ],
     [
      -81.524284,
      37.430784
     ],
     [
      -81.54447,
      37.432507
     ],
     [
      -81.558593,
      37.428478
     ],
     [
      -81.564369,
      37.432484
     ],
     [
      -81.571827,
      37.431004
     ],
     [
      -81.578801,
      37.433939
     ],
     [
      -81.589708,
      37.417203
     ],
     [
      -81.605271,
      37.412976
     ],
     [
      -81.64888,
      37.421877
     ],
     [
      -81.668328,
      37.434645
     ],
     [
      -81.683407,
      37.43354
     ],
     [
      -81.700134,
      37.445307
     ],
     [
      -81.710467,
      37.447754
     ],
     [
      -81.717797,
      37.443875
     ],
     [
      -81.725046,
      37.458716
     ],
     [
      -81.728146,
      37.452788
     ],
     [
      -81.74205,
      37.44874
     ],
     [
      -81.775451,
      37.474998
     ],
     [
      -81.792753,
      37.469198
     ],
     [
      -81.804296,
      37.470396
     ],
     [
      -81.81881,
      37.459125
     ],
     [
      -81.804015,
      37.449837
     ],
     [
      -81.805033,
      37.438536
     ],
     [
      -81.790476,
      37.42607
     ],
     [
      -81.791065,
      37.418188
     ],
     [
      -81.784192,
      37.414811
     ],
     [
      -81.78871,
      37.411285
     ],
     [
      -81.785528,
      37.401976
     ],
     [
      -81.801315,
      37.402633
     ],
     [
      -81.804925,
      37.391149
     ],
     [
      -81.812802,
      37.386015
     ],
     [
      -81.806114,
      37.382484
     ],
     [
      -81.808704,
      37.377551
     ],
     [
      -81.803846,
      37.371925
     ],
     [
      -81.79679,
      37.369255
     ],
     [
      -81.803375,
      37.358143
     ],
     [
      -81.798011,
      37.348414
     ],
     [
      -81.782499,
      37.343632
     ],
     [
      -81.775317,
      37.348681
     ],
     [
      -81.768041,
      37.344938
     ],
     [
      -81.764049,
      37.348281
     ],
     [
      -81.749306,
      37.33705
     ],
     [
      -81.743618,
      37.344757
     ],
     [
      -81.731458,
      37.337899
     ],
     [
      -81.725503,
      37.341726
     ],
     [
      -81.715533,
      37.340432
     ],
     [
      -81.718028,
      37.318652
     ],
     [
      -81.690261,
      37.322223
     ],
     [
      -81.696673,
      37.314429
     ],
     [
      -81.692268,
      37.304716
     ],
     [
      -81.684125,
      37.301444
     ],
     [
      -81.672921,
      37.305793
     ],
     [
      -81.666814,
      37.294153
     ],
     [
      -81.677075,
      37.289468
     ],
     [
      -81.672992,
      37.284903
     ],
     [
      -81.664307,
      37.282309
     ],
     [
      -81.655884,
      37.290559
     ],
     [
      -81.627578,
      37.283421
     ],
     [
      -81.621161,
      37.270464
     ],
     [
      -81.624182,
      37.266498
     ],
     [
      -81.610249,
      37.255163
     ],
     [
      -81.609861,
      37.237956
     ],
     [
      -81.603614,
      37.229886
     ],
     [
      -81.577671,
      37.219577
     ],
     [
      -81.563277,
      37.207474
     ],
     [
      -81.554259,
      37.208291
     ],
     [
      -81.545338,
      37.220886
     ],
     [
      -81.507635,
      37.234022
     ],
     [
      -81.503939,
      37.253247
     ],
     [
      -81.484329,
      37.266356
     ],
     [
      -81.473735,
      37.28913
     ],
     [
      -81.475823,
      37.299585
     ],
     [
      -81.46729,
      37.30636
     ],
     [
      -81.467169,
      37.311383
     ],
     [
      -81.476559,
      37.321534
     ],
     [
      -81.47816,
      37.332393
     ],
     [
      -81.483316,
      37.335629
     ],
     [
      -81.477747,
      37.336513
     ],
     [
      -81.474615,
      37.347478
     ],
     [
      -81.463022,
      37.35058
     ],
     [
      -81.459704,
      37.35803
     ],
     [
      -81.446266,
      37.355494
     ],
     [
      -81.436,
      37.366974
     ],
     [
      -81.429052,
      37.365872
     ],
     [
      -81.420009,
      37.37275
     ],
     [
      -81.416631,
      37.369862
     ],
     [
      -81.419631,
      37.381448
     ],
     [
      -81.417615,
      37.385453
     ],
     [
      -81.410915,
      37.385633
     ],
     [
      -81.414562,
      37.384256
     ],
     [
      -81.421239,
      37.388729
     ],
     [
      -81.419014,
      37.402809
     ],
     [
      -81.425632,
      37.406582
     ],
     [
      -81.426444,
      37.413238
     ],
     [
      -81.435083,
      37.414602
     ],
     [
      -81.441281,
      37.420733
     ],
     [
      -81.465653,
      37.405148
     ],
     [
      -81.470314,
      37.410469
     ],
     [
      -81.483987,
      37.414893
     ],
     [
      -81.482099,
      37.420951
     ],
     [
      -81.494645,
      37.417832
     ],
     [
      -81.50754,
      37.426698
     ]
    ]
   },
   "properties": {
    "kind": "route",
    "slug": "head-of-the-dragon",
    "name": "The Head of the Dragon",
    "miles": 93,
    "rideTime": "4-5 hours",
    "difficulty": "Intermediate",
    "surface": "Paved",
    "region": "New River-Greenbrier Valley",
    "secondaryRegion": "",
    "short": "A 93-mile loop through McDowell County's coal camp towns, from the Kimball War Memorial to the historic company store ruins at Pageton and Elkhorn. Built for one full day of curves, coal country history, and small-town stops along Route 52.",
    "image": null,
    "stops": 6,
    "nearby": 4,
    "url": "/routes/head-of-the-dragon"
   }
  },
  {
   "type": "Feature",
   "geometry": {
    "type": "Point",
    "coordinates": [
     -81.50754,
     37.426698
    ]
   },
   "properties": {
    "kind": "route-start",
    "slug": "head-of-the-dragon",
    "name": "The Head of the Dragon",
    "miles": 93,
    "region": "New River-Greenbrier Valley",
    "url": "/routes/head-of-the-dragon"
   }
  },
  {
   "type": "Feature",
   "geometry": {
    "type": "MultiLineString",
    "coordinates": [
     [
      [
       -80.887554,
       38.222965
      ],
      [
       -80.881063,
       38.221775
      ],
      [
       -80.872503,
       38.204022
      ],
      [
       -80.861942,
       38.196703
      ],
      [
       -80.892556,
       38.178934
      ],
      [
       -80.906421,
       38.15761
      ],
      [
       -80.924061,
       38.15309
      ],
      [
       -80.935857,
       38.140079
      ],
      [
       -80.956765,
       38.129984
      ],
      [
       -80.954536,
       38.136827
      ],
      [
       -80.96596,
       38.149527
      ],
      [
       -80.960984,
       38.159598
      ],
      [
       -80.967219,
       38.163876
      ],
      [
       -80.964862,
       38.173906
      ],
      [
       -80.967754,
       38.177067
      ],
      [
       -80.992333,
       38.181089
      ],
      [
       -81.003832,
       38.192463
      ],
      [
       -81.009125,
       38.183575
      ],
      [
       -81.028503,
       38.183327
      ],
      [
       -81.029796,
       38.170399
      ],
      [
       -81.037893,
       38.164382
      ],
      [
       -81.033317,
       38.15855
      ],
      [
       -81.035368,
       38.151032
      ],
      [
       -81.048699,
       38.139942
      ],
      [
       -81.054233,
       38.142719
      ],
      [
       -81.072316,
       38.128201
      ],
      [
       -81.077809,
       38.133478
      ],
      [
       -81.100873,
       38.136207
      ],
      [
       -81.111435,
       38.12422
      ],
      [
       -81.117881,
       38.1221
      ]
     ],
     [
      [
       -81.117881,
       38.1221
      ],
      [
       -81.126875,
       38.122401
      ],
      [
       -81.128342,
       38.126536
      ],
      [
       -81.131246,
       38.123649
      ],
      [
       -81.140984,
       38.12407
      ],
      [
       -81.146425,
       38.141419
      ],
      [
       -81.156207,
       38.144377
      ],
      [
       -81.172402,
       38.135458
      ],
      [
       -81.173146,
       38.147307
      ],
      [
       -81.197673,
       38.163582
      ],
      [
       -81.214006,
       38.157484
      ],
      [
       -81.213307,
       38.136027
      ],
      [
       -81.20639,
       38.142551
      ],
      [
       -81.213307,
       38.136027
      ],
      [
       -81.214006,
       38.157484
      ],
      [
       -81.199638,
       38.163646
      ],
      [
       -81.173425,
       38.147604
      ],
      [
       -81.172402,
       38.135458
      ],
      [
       -81.156329,
       38.144374
      ],
      [
       -81.146425,
       38.141419
      ],
      [
       -81.148909,
       38.133666
      ],
      [
       -81.142858,
       38.114719
      ],
      [
       -81.153598,
       38.097748
      ],
      [
       -81.141529,
       38.091896
      ],
      [
       -81.115404,
       38.095781
      ],
      [
       -81.111286,
       38.091307
      ],
      [
       -81.105159,
       38.057438
      ],
      [
       -81.074531,
       38.07323
      ],
      [
       -81.072807,
       38.07024
      ],
      [
       -81.0797,
       38.070849
      ],
      [
       -81.080617,
       38.077974
      ],
      [
       -81.081829,
       38.071043
      ],
      [
       -81.076453,
       38.065498
      ],
      [
       -81.081535,
       38.06425
      ],
      [
       -81.083543,
       38.067226
      ],
      [
       -81.080538,
       38.059537
      ],
      [
       -81.088449,
       38.076072
      ],
      [
       -81.095853,
       38.073443
      ],
      [
       -81.100944,
       38.06615
      ],
      [
       -81.09849,
       38.06093
      ],
      [
       -81.105238,
       38.057608
      ],
      [
       -81.100565,
       38.04936
      ],
      [
       -81.117728,
       38.018681
      ],
      [
       -81.131005,
       38.005763
      ],
      [
       -81.139422,
       37.977403
      ],
      [
       -81.147827,
       37.970285
      ],
      [
       -81.153514,
       37.932901
      ],
      [
       -81.165386,
       37.918158
      ],
      [
       -81.15369,
       37.900905
      ],
      [
       -81.162337,
       37.891725
      ],
      [
       -81.160815,
       37.887462
      ],
      [
       -81.143594,
       37.87826
      ],
      [
       -81.138534,
       37.86849
      ],
      [
       -81.126688,
       37.865188
      ],
      [
       -81.126774,
       37.85497
      ],
      [
       -81.133972,
       37.848312
      ],
      [
       -81.118957,
       37.843535
      ],
      [
       -81.09895,
       37.842699
      ],
      [
       -81.093861,
       37.848591
      ],
      [
       -81.052777,
       37.859351
      ],
      [
       -81.029786,
       37.849737
      ],
      [
       -81.019199,
       37.857228
      ],
      [
       -80.988597,
       37.858659
      ],
      [
       -80.974567,
       37.873384
      ],
      [
       -80.96486,
       37.904146
      ],
      [
       -80.938356,
       37.924917
      ],
      [
       -80.926713,
       37.926909
      ],
      [
       -80.919268,
       37.924248
      ],
      [
       -80.902341,
       37.931836
      ],
      [
       -80.903138,
       37.938939
      ],
      [
       -80.91724,
       37.945958
      ],
      [
       -80.921219,
       37.951871
      ],
      [
       -80.917113,
       37.95983
      ],
      [
       -80.921942,
       37.967219
      ],
      [
       -80.928647,
       37.972383
      ],
      [
       -80.937726,
       37.973313
      ],
      [
       -80.940997,
       37.987416
      ],
      [
       -80.936963,
       37.992006
      ],
      [
       -80.944109,
       38.004115
      ],
      [
       -80.931387,
       38.005472
      ],
      [
       -80.912463,
       38.02003
      ],
      [
       -80.929456,
       38.051622
      ],
      [
       -80.911417,
       38.067812
      ],
      [
       -80.89218,
       38.073967
      ],
      [
       -80.894593,
       38.08165
      ],
      [
       -80.884904,
       38.083966
      ],
      [
       -80.882792,
       38.10326
      ],
      [
       -80.875975,
       38.109521
      ],
      [
       -80.886254,
       38.119896
      ],
      [
       -80.881461,
       38.131988
      ],
      [
       -80.885502,
       38.138342
      ],
      [
       -80.877557,
       38.143645
      ],
      [
       -80.87627,
       38.152494
      ],
      [
       -80.870073,
       38.157243
      ],
      [
       -80.873992,
       38.158785
      ],
      [
       -80.875242,
       38.173876
      ],
      [
       -80.867127,
       38.178372
      ],
      [
       -80.87428,
       38.189409
      ],
      [
       -80.861762,
       38.196592
      ],
      [
       -80.872503,
       38.204022
      ],
      [
       -80.881063,
       38.221775
      ],
      [
       -80.887554,
       38.222965
      ]
     ]
    ]
   },
   "properties": {
    "kind": "route",
    "slug": "the-summersville-loop",
    "name": "The Summersville Loop",
    "miles": 127,
    "rideTime": "1-2 days",
    "difficulty": "Intermediate",
    "surface": "Paved",
    "region": "New River-Greenbrier Valley",
    "secondaryRegion": "Mountain Lakes",
    "short": "Gorge roads, waterfall stops, and coal country history — this New River Gorge loop is West Virginia riding at its absolute best.",
    "image": "https://cdn.prod.website-files.com/6a4024b4f8999364837bcd0b/6a432cec646ae66df0d8aff0_Fayatte%20Bridge%20New%20River%20WV.jpg",
    "stops": 6,
    "nearby": 8,
    "url": "/routes/the-summersville-loop"
   }
  },
  {
   "type": "Feature",
   "geometry": {
    "type": "Point",
    "coordinates": [
     -80.887554,
     38.222965
    ]
   },
   "properties": {
    "kind": "route-start",
    "slug": "the-summersville-loop",
    "name": "The Summersville Loop",
    "miles": 127,
    "region": "New River-Greenbrier Valley",
    "url": "/routes/the-summersville-loop"
   }
  }
 ]
}
