{
  "type": "FeatureCollection",
  "features": [
    {
      "type": "Feature",
      "geometry": { "type": "Point", "coordinates": [-80.887608, 38.223373] },
      "properties": {
        "id": "recvPJnW9VMcBk09C",
        "name": "Summersville Lake Dam Overlook",
        "category": "Attraction",
        "certified": false,
        "short": "Roadside overlook above Summersville Lake \u2014 West Virginia's largest lake, known for some of the clearest, deepest-blue water in the eastern United States.",
        "maps": "https://www.google.com/maps/dir/?api=1&destination=38.223373,-80.887608"
      }
    },
    {
      "type": "Feature",
      "geometry": { "type": "Point", "coordinates": [-81.206497, 38.142608] },
      "properties": {
        "id": "recOhTqsi48QOI548",
        "name": "Kanawha Falls",
        "category": "Attraction",
        "certified": false,
        "short": "A wide, roadside waterfall on the Kanawha River at Glen Ferris \u2014 no hiking required.",
        "maps": "https://www.google.com/maps/dir/?api=1&destination=38.142608,-81.206497"
      }
    },
    {
      "type": "Feature",
      "geometry": { "type": "Point", "coordinates": [-81.117865, 38.122083] },
      "properties": {
        "id": "recA2Tb4l9cvlAYfC",
        "name": "Hawks Nest State Park",
        "category": "Attraction",
        "certified": false,
        "short": "State park in Ansted with a canyon-rim overlook high above the New River Gorge.",
        "maps": "https://www.google.com/maps/dir/?api=1&destination=38.122083,-81.117865"
      }
    },
    {
      "type": "Feature",
      "geometry": { "type": "Point", "coordinates": [-81.077166, 38.064092] },
      "properties": {
        "id": "recfmU2gSvQMOTPaE",
        "name": "Fayette Station Road & Tunney Hunsaker Bridge",
        "category": "Attraction",
        "certified": false,
        "short": "A steep, switchbacked road descending into the New River Gorge to a river-level bridge beneath the New River Gorge Bridge.",
        "maps": "https://www.google.com/maps/dir/?api=1&destination=38.064092,-81.077166"
      }
    },
    {
      "type": "Feature",
      "geometry": { "type": "Point", "coordinates": [-81.148640, 37.959860] },
      "properties": {
        "id": "recRSyShjXZGzTaJ1",
        "name": "Coal Heritage Trail",
        "category": "Attraction",
        "certified": false,
        "short": "A National Scenic Byway through the historic coal-mining communities of southern West Virginia.",
        "maps": "https://www.google.com/maps/dir/?api=1&destination=37.95986,-81.14864"
      }
    },
    {
      "type": "Feature",
      "geometry": { "type": "Point", "coordinates": [-80.943985, 38.004280] },
      "properties": {
        "id": "rec3P1fszCzizMRUr",
        "name": "Babcock State Park",
        "category": "Attraction",
        "certified": false,
        "short": "State park home to the Glade Creek Grist Mill, purported to be the most photographed spot in West Virginia.",
        "maps": "https://www.google.com/maps/dir/?api=1&destination=38.00428,-80.943985"
      }
    }
  ]
}
