{"type":"FeatureCollection","features":[{"type":"Feature","geometry":{"type":"MultiLineString","coordinates":[[[-80.887554,38.222965],[-80.88403,38.222951],[-80.883738,38.2229],[-80.881589,38.222085],[-80.881063,38.221775],[-80.880594,38.22124],[-80.880495,38.221013],[-80.879557,38.217832],[-80.879235,38.217276],[-80.878849,38.216787],[-80.878205,38.216298],[-80.876651,38.215403],[-80.876118,38.214962],[-80.875855,38.214646],[-80.875599,38.21417],[-80.875154,38.212149],[-80.87428,38.20957],[-80.873918,38.209049],[-80.872762,38.208081],[-80.872575,38.207889],[-80.87246,38.207688],[-80.872339,38.207279],[-80.872378,38.206901],[-80.872904,38.205624],[-80.872974,38.20512],[-80.872883,38.204637],[-80.872773,38.2044],[-80.872503,38.204022],[-80.871702,38.203109],[-80.871,38.202479],[-80.868999,38.201018],[-80.867091,38.199756],[-80.861942,38.196703],[-80.863168,38.195852],[-80.864523,38.195061],[-80.889527,38.181119],[-80.891132,38.180084],[-80.892556,38.178934],[-80.893205,38.178344],[-80.894133,38.177331],[-80.895196,38.175923],[-80.895681,38.175161],[-80.89682,38.173085],[-80.90285,38.161526],[-80.903578,38.160332],[-80.904113,38.159672],[-80.905003,38.158747],[-80.906421,38.15761],[-80.907412,38.156991],[-80.908531,38.156427],[-80.90981,38.155921],[-80.911199,38.155515],[-80.912543,38.155253],[-80.921339,38.154067],[-80.922852,38.153645],[-80.924061,38.15309],[-80.925099,38.152427],[-80.929397,38.149272],[-80.930119,38.14867],[-80.930779,38.147995],[-80.93148,38.147062],[-80.931925,38.14628],[-80.933215,38.143148],[-80.933692,38.142285],[-80.934248,38.141541],[-80.934802,38.140944],[-80.935857,38.140079],[-80.936654,38.139572],[-80.937654,38.139062],[-80.956765,38.129984],[-80.957984,38.131584],[-80.955318,38.133851],[-80.955405,38.134331],[-80.954681,38.134927],[-80.953956,38.135362],[-80.953927,38.135476],[-80.954362,38.136277],[-80.954536,38.136827],[-80.954826,38.137124],[-80.956652,38.137445],[-80.957522,38.137742],[-80.958131,38.138131],[-80.958247,38.138337],[-80.958131,38.139001],[-80.958044,38.13907],[-80.957899,38.139871],[-80.958015,38.14026],[-80.958595,38.141313],[-80.95903,38.141656],[-80.960219,38.141931],[-80.96048,38.14216],[-80.960538,38.142343],[-80.960451,38.143579],[-80.960567,38.143945],[-80.963285,38.14754],[-80.963874,38.148402],[-80.964332,38.148945],[-80.964487,38.149],[-80.964708,38.148972],[-80.965213,38.148778],[-80.965412,38.148815],[-80.96596,38.149527],[-80.964869,38.15063],[-80.964579,38.151199],[-80.964468,38.151829],[-80.964598,38.152707],[-80.964559,38.154068],[-80.964378,38.154921],[-80.964128,38.155651],[-80.963758,38.156193],[-80.962718,38.157166],[-80.961876,38.157834],[-80.961533,38.158172],[-80.961307,38.158573],[-80.961203,38.159045],[-80.960999,38.159395],[-80.960984,38.159598],[-80.960986,38.159801],[-80.961215,38.16036],[-80.961229,38.160647],[-80.961353,38.160818],[-80.96149,38.16089],[-80.962341,38.160914],[-80.962482,38.160844],[-80.96295,38.160381],[-80.963176,38.160283],[-80.96354,38.160274],[-80.963904,38.160422],[-80.964891,38.161271],[-80.965161,38.161743],[-80.965427,38.161938],[-80.965867,38.162121],[-80.966273,38.162362],[-80.966483,38.1627],[-80.966688,38.16321],[-80.967219,38.163876],[-80.967239,38.164121],[-80.967167,38.164506],[-80.9672,38.164832],[-80.967548,38.165489],[-80.967594,38.165724],[-80.967553,38.166446],[-80.967579,38.166977],[-80.967337,38.167683],[-80.967073,38.167945],[-80.966565,38.168252],[-80.966244,38.168754],[-80.96597,38.169736],[-80.96593,38.170688],[-80.965881,38.170851],[-80.965228,38.171537],[-80.964924,38.172221],[-80.964825,38.172782],[-80.965062,38.173487],[-80.964868,38.173793],[-80.964862,38.173906],[-80.965331,38.174284],[-80.965885,38.175039],[-80.966496,38.175334],[-80.966828,38.175625],[-80.967116,38.176049],[-80.967471,38.176858],[-80.967754,38.177067],[-80.967939,38.177082],[-80.968903,38.176879],[-80.970647,38.176966],[-80.971211,38.176879],[-80.971815,38.176682],[-80.972264,38.176599],[-80.972983,38.176549],[-80.974909,38.176949],[-80.976034,38.177034],[-80.978496,38.1781],[-80.979173,38.178345],[-80.979563,38.178427],[-80.982155,38.178311],[-80.983001,38.178407],[-80.98374,38.17843],[-80.985401,38.178193],[-80.986088,38.17835],[-80.986483,38.17857],[-80.986913,38.178959],[-80.987112,38.17921],[-80.987138,38.179419],[-80.987318,38.17971],[-80.987645,38.17994],[-80.988223,38.180211],[-80.988309,38.180286],[-80.988459,38.180577],[-80.988644,38.180753],[-80.988842,38.180788],[-80.989649,38.180478],[-80.989948,38.180456],[-80.990922,38.180813],[-80.991404,38.180851],[-80.992333,38.181089],[-80.992838,38.181363],[-80.994092,38.182402],[-80.995083,38.182929],[-80.996081,38.183319],[-80.996865,38.183736],[-80.998218,38.184089],[-80.998558,38.18433],[-80.999138,38.185022],[-80.9993,38.185334],[-80.99927,38.185971],[-80.998973,38.186842],[-80.999045,38.187155],[-80.999472,38.188027],[-81.000092,38.188453],[-81.000345,38.188857],[-81.000442,38.190028],[-81.000058,38.191044],[-81.000096,38.191295],[-81.000272,38.191523],[-81.001242,38.191803],[-81.002061,38.192184],[-81.003642,38.192465],[-81.003832,38.192463],[-81.004926,38.192115],[-81.005216,38.191997],[-81.005378,38.191842],[-81.005424,38.191706],[-81.005399,38.191395],[-81.005159,38.19083],[-81.005041,38.190303],[-81.005153,38.189765],[-81.005366,38.189231],[-81.005772,38.188538],[-81.006671,38.187718],[-81.007684,38.18649],[-81.007926,38.185918],[-81.008283,38.184774],[-81.008636,38.184287],[-81.008889,38.183741],[-81.009125,38.183575],[-81.010082,38.183389],[-81.011201,38.18292],[-81.011653,38.182898],[-81.012599,38.183055],[-81.013241,38.183266],[-81.013874,38.183203],[-81.014428,38.183223],[-81.014991,38.183354],[-81.017245,38.184077],[-81.018676,38.184464],[-81.019999,38.184522],[-81.023267,38.185053],[-81.024564,38.185092],[-81.025123,38.185039],[-81.02543,38.184958],[-81.026326,38.184545],[-81.027129,38.184419],[-81.027764,38.184081],[-81.028168,38.183575],[-81.028503,38.183327],[-81.028591,38.183196],[-81.028647,38.182973],[-81.028624,38.182619],[-81.028704,38.182191],[-81.028729,38.181708],[-81.028791,38.181596],[-81.028918,38.181511],[-81.029278,38.18139],[-81.029348,38.181265],[-81.029226,38.180594],[-81.02923,38.180111],[-81.02969,38.179541],[-81.029855,38.17913],[-81.02964,38.177734],[-81.029184,38.176082],[-81.029173,38.175867],[-81.029216,38.175723],[-81.02933,38.175581],[-81.030061,38.174842],[-81.030293,38.17438],[-81.030225,38.173904],[-81.03034,38.173167],[-81.030194,38.172029],[-81.029793,38.171562],[-81.029649,38.171205],[-81.029712,38.170667],[-81.029796,38.170399],[-81.029954,38.170135],[-81.030282,38.169765],[-81.031097,38.169839],[-81.031764,38.16964],[-81.032707,38.1691],[-81.032907,38.16871],[-81.033243,38.168326],[-81.033531,38.16821],[-81.034288,38.168075],[-81.034772,38.167834],[-81.035036,38.167511],[-81.035094,38.166838],[-81.035467,38.166502],[-81.03571,38.165794],[-81.035942,38.165428],[-81.036784,38.165062],[-81.037323,38.164713],[-81.037843,38.16445],[-81.037893,38.164382],[-81.037908,38.164129],[-81.03787,38.164066],[-81.037031,38.163317],[-81.036789,38.162987],[-81.036714,38.162621],[-81.036722,38.162121],[-81.0365,38.161634],[-81.036109,38.161053],[-81.035912,38.160231],[-81.035643,38.160007],[-81.035111,38.159688],[-81.033536,38.158823],[-81.033317,38.15855],[-81.03335,38.158203],[-81.033308,38.157984],[-81.033515,38.157333],[-81.033549,38.157091],[-81.033575,38.15601],[-81.033642,38.155808],[-81.034099,38.155155],[-81.034824,38.154718],[-81.035402,38.153958],[-81.035514,38.153931],[-81.035783,38.154005],[-81.036026,38.154008],[-81.03623,38.153961],[-81.036863,38.15372],[-81.036967,38.153655],[-81.03704,38.153493],[-81.037075,38.152706],[-81.036988,38.15229],[-81.036814,38.152129],[-81.035456,38.151231],[-81.035367,38.151109],[-81.035368,38.151032],[-81.035468,38.150908],[-81.036323,38.15045],[-81.03808,38.149231],[-81.038157,38.149056],[-81.038233,38.148529],[-81.038322,38.148338],[-81.039052,38.14765],[-81.039421,38.147139],[-81.039687,38.146855],[-81.041546,38.146212],[-81.04188,38.146201],[-81.042409,38.146325],[-81.042644,38.146309],[-81.042718,38.146237],[-81.042735,38.146089],[-81.042465,38.144753],[-81.042448,38.144343],[-81.042524,38.144208],[-81.042912,38.144165],[-81.044353,38.144411],[-81.044649,38.144416],[-81.044756,38.144374],[-81.044832,38.144271],[-81.044875,38.143818],[-81.044958,38.143664],[-81.045059,38.143597],[-81.046118,38.143158],[-81.046367,38.143173],[-81.046715,38.143322],[-81.046891,38.143277],[-81.047129,38.143113],[-81.047547,38.142598],[-81.047995,38.142196],[-81.047986,38.142093],[-81.047589,38.141597],[-81.047494,38.141352],[-81.047635,38.141022],[-81.047741,38.140906],[-81.048247,38.140644],[-81.048411,38.140433],[-81.048549,38.14007],[-81.048699,38.139942],[-81.049061,38.139854],[-81.049668,38.139811],[-81.049974,38.139815],[-81.0503,38.139916],[-81.050956,38.140609],[-81.052049,38.141299],[-81.052584,38.141707],[-81.053141,38.142481],[-81.053326,38.142671],[-81.053466,38.14276],[-81.053739,38.142823],[-81.054233,38.142719],[-81.054387,38.142592],[-81.054626,38.142162],[-81.054893,38.141841],[-81.055642,38.141388],[-81.05618,38.140523],[-81.056297,38.140084],[-81.05628,38.139837],[-81.056148,38.139614],[-81.055818,38.13933],[-81.055772,38.139211],[-81.055824,38.139088],[-81.056392,38.138403],[-81.057176,38.137618],[-81.057834,38.136865],[-81.058173,38.136579],[-81.058596,38.136326],[-81.059267,38.136038],[-81.05962,38.135958],[-81.060304,38.135904],[-81.060747,38.135807],[-81.061116,38.135665],[-81.061331,38.135473],[-81.061903,38.134744],[-81.062281,38.134512],[-81.06361,38.134231],[-81.064435,38.134148],[-81.064632,38.134081],[-81.064743,38.133978],[-81.064856,38.133304],[-81.065,38.133114],[-81.06527,38.132969],[-81.065978,38.13278],[-81.067195,38.132711],[-81.067446,38.132619],[-81.067693,38.132151],[-81.068347,38.131612],[-81.068856,38.131083],[-81.069202,38.130903],[-81.069896,38.130727],[-81.070052,38.130647],[-81.070094,38.130418],[-81.069746,38.129758],[-81.069842,38.129399],[-81.070174,38.128968],[-81.070437,38.128762],[-81.071689,38.128293],[-81.072316,38.128201],[-81.072867,38.12822],[-81.073683,38.128445],[-81.074135,38.128521],[-81.074728,38.129455],[-81.075019,38.130039],[-81.075317,38.131534],[-81.075579,38.132032],[-81.076035,38.132615],[-81.076928,38.133175],[-81.077809,38.133478],[-81.078634,38.133589],[-81.079349,38.133584],[-81.084761,38.133366],[-81.08642,38.133344],[-81.092534,38.133426],[-81.093499,38.133488],[-81.094479,38.133685],[-81.095563,38.13405],[-81.096805,38.134656],[-81.099059,38.13601],[-81.09946,38.136187],[-81.09987,38.136285],[-81.100236,38.136301],[-81.100873,38.136207],[-81.10131,38.13601],[-81.101618,38.135776],[-81.103169,38.133799],[-81.103466,38.13347],[-81.104006,38.133027],[-81.104578,38.132713],[-81.105465,38.132318],[-81.106658,38.131954],[-81.107077,38.131781],[-81.10745,38.131576],[-81.108093,38.131025],[-81.108353,38.130688],[-81.108593,38.130213],[-81.108885,38.129545],[-81.108986,38.129198],[-81.108993,38.12876],[-81.108777,38.12797],[-81.108839,38.127643],[-81.109957,38.126058],[-81.111105,38.124562],[-81.111435,38.12422],[-81.111965,38.123944],[-81.112697,38.123685],[-81.117325,38.122843],[-81.117639,38.122528],[-81.117881,38.1221]],[[-81.117881,38.1221],[-81.117639,38.122528],[-81.117723,38.122685],[-81.117878,38.122735],[-81.122604,38.121883],[-81.123037,38.121929],[-81.123665,38.122212],[-81.124639,38.122314],[-81.125432,38.122484],[-81.125888,38.122462],[-81.126279,38.122307],[-81.126571,38.12229],[-81.126875,38.122401],[-81.127383,38.122674],[-81.127672,38.122885],[-81.128189,38.1235],[-81.128356,38.123866],[-81.128407,38.124225],[-81.128374,38.125526],[-81.128165,38.126242],[-81.128185,38.126437],[-81.128342,38.126536],[-81.128445,38.126539],[-81.1287,38.126382],[-81.129362,38.125761],[-81.130822,38.123889],[-81.131246,38.123649],[-81.131696,38.12359],[-81.133548,38.123921],[-81.134096,38.123926],[-81.134889,38.12382],[-81.136536,38.123285],[-81.136778,38.123292],[-81.136972,38.123355],[-81.137351,38.123699],[-81.137549,38.12375],[-81.138624,38.123525],[-81.13913,38.123316],[-81.139377,38.123268],[-81.139675,38.12334],[-81.140984,38.12407],[-81.141139,38.124277],[-81.141116,38.124749],[-81.141817,38.125557],[-81.141928,38.126273],[-81.141994,38.126405],[-81.142329,38.126662],[-81.142473,38.126851],[-81.14245,38.127026],[-81.142348,38.127159],[-81.141695,38.12758],[-81.141417,38.127813],[-81.141368,38.127913],[-81.141397,38.128068],[-81.141583,38.128225],[-81.144151,38.129164],[-81.14434,38.129383],[-81.144379,38.12953],[-81.14436,38.129809],[-81.144203,38.130295],[-81.144189,38.13048],[-81.144242,38.130651],[-81.144406,38.130777],[-81.144738,38.130921],[-81.145638,38.131052],[-81.145873,38.131215],[-81.145989,38.131439],[-81.145931,38.132272],[-81.146026,38.132456],[-81.146338,38.132814],[-81.146378,38.132977],[-81.146339,38.133076],[-81.146194,38.133214],[-81.145145,38.133688],[-81.144482,38.134048],[-81.144402,38.134254],[-81.144501,38.134412],[-81.144808,38.134574],[-81.146616,38.134917],[-81.146841,38.134981],[-81.147016,38.135202],[-81.147014,38.135411],[-81.146677,38.136408],[-81.146338,38.137665],[-81.146311,38.137947],[-81.14647,38.138426],[-81.147047,38.138905],[-81.147129,38.139103],[-81.147116,38.139274],[-81.146883,38.140147],[-81.146454,38.141195],[-81.146425,38.141419],[-81.146549,38.141492],[-81.146725,38.141435],[-81.147056,38.141051],[-81.147866,38.140432],[-81.148356,38.14034],[-81.148846,38.140388],[-81.149008,38.140468],[-81.15007,38.141292],[-81.150293,38.14152],[-81.150856,38.142321],[-81.151164,38.142604],[-81.151492,38.142743],[-81.151953,38.142775],[-81.15211,38.142668],[-81.152197,38.142374],[-81.15232,38.142176],[-81.152563,38.142085],[-81.152873,38.14213],[-81.153237,38.142413],[-81.153511,38.142551],[-81.153722,38.142591],[-81.154294,38.142539],[-81.154434,38.142588],[-81.154767,38.14288],[-81.155531,38.14396],[-81.155913,38.144259],[-81.156207,38.144377],[-81.156329,38.144374],[-81.156513,38.144267],[-81.1568,38.143792],[-81.157333,38.143147],[-81.1575,38.142733],[-81.157562,38.142415],[-81.157617,38.142331],[-81.157842,38.142193],[-81.158779,38.141802],[-81.159219,38.141528],[-81.159345,38.141519],[-81.159967,38.141676],[-81.160203,38.141614],[-81.160645,38.141324],[-81.161018,38.141212],[-81.161451,38.1412],[-81.16212,38.141371],[-81.162386,38.141313],[-81.162493,38.141233],[-81.162695,38.140894],[-81.162966,38.140619],[-81.164506,38.140094],[-81.165051,38.139769],[-81.165783,38.139497],[-81.16631,38.139151],[-81.16699,38.139052],[-81.167229,38.138889],[-81.16758,38.138381],[-81.167844,38.138188],[-81.169186,38.137785],[-81.170535,38.137101],[-81.17093,38.136777],[-81.171206,38.136111],[-81.171318,38.135909],[-81.171567,38.135623],[-81.171998,38.135405],[-81.172402,38.135458],[-81.172558,38.135654],[-81.172597,38.136596],[-81.172653,38.136945],[-81.173,38.137444],[-81.173037,38.137669],[-81.172856,38.138225],[-81.172668,38.138618],[-81.172366,38.140603],[-81.17235,38.141359],[-81.172041,38.142244],[-81.172089,38.142599],[-81.17244,38.143469],[-81.172495,38.144504],[-81.1726,38.145108],[-81.172747,38.145523],[-81.173042,38.147067],[-81.173146,38.147307],[-81.174962,38.149168],[-81.175268,38.149378],[-81.17589,38.149592],[-81.176233,38.149784],[-81.176504,38.150038],[-81.176778,38.150494],[-81.177066,38.150766],[-81.178121,38.151403],[-81.178611,38.151807],[-81.179124,38.152399],[-81.179463,38.153168],[-81.180145,38.153991],[-81.180371,38.154099],[-81.180595,38.154134],[-81.181633,38.154134],[-81.182374,38.154491],[-81.183958,38.155915],[-81.18503,38.157284],[-81.185922,38.157954],[-81.188403,38.159426],[-81.189579,38.160235],[-81.190424,38.160734],[-81.194327,38.162189],[-81.197673,38.163582],[-81.198205,38.163735],[-81.19871,38.163803],[-81.199776,38.163737],[-81.203248,38.163123],[-81.206252,38.16249],[-81.207148,38.162246],[-81.20814,38.161896],[-81.209604,38.161193],[-81.211689,38.159905],[-81.212187,38.159517],[-81.212319,38.159396],[-81.212385,38.159239],[-81.213172,38.158467],[-81.214006,38.157484],[-81.214271,38.156848],[-81.214926,38.154233],[-81.215054,38.153265],[-81.214966,38.149616],[-81.21499,38.148642],[-81.214221,38.146681],[-81.212575,38.144327],[-81.212175,38.143656],[-81.211935,38.143034],[-81.211921,38.1426],[-81.212131,38.141639],[-81.212385,38.141271],[-81.212913,38.140223],[-81.213158,38.1399],[-81.213579,38.139492],[-81.214372,38.138844],[-81.212531,38.13758],[-81.211634,38.136904],[-81.212609,38.136335],[-81.213307,38.136027],[-81.211989,38.136857],[-81.211699,38.1372],[-81.211326,38.137471],[-81.211152,38.137821],[-81.211096,38.138074],[-81.210892,38.138352],[-81.209792,38.139206],[-81.208949,38.139967],[-81.208148,38.140432],[-81.207176,38.141236],[-81.206689,38.141866],[-81.206482,38.142245],[-81.20639,38.142551],[-81.206504,38.142563],[-81.20639,38.142551],[-81.206482,38.142245],[-81.206689,38.141866],[-81.207176,38.141236],[-81.208148,38.140432],[-81.208949,38.139967],[-81.209792,38.139206],[-81.210892,38.138352],[-81.211096,38.138074],[-81.211152,38.137821],[-81.211326,38.137471],[-81.211699,38.1372],[-81.211989,38.136857],[-81.213307,38.136027],[-81.212609,38.136335],[-81.211634,38.136904],[-81.212531,38.13758],[-81.214372,38.138844],[-81.213579,38.139492],[-81.213158,38.1399],[-81.212913,38.140223],[-81.212385,38.141271],[-81.212131,38.141639],[-81.211921,38.1426],[-81.211935,38.143034],[-81.212175,38.143656],[-81.212575,38.144327],[-81.214221,38.146681],[-81.21499,38.148642],[-81.214966,38.149616],[-81.215054,38.153265],[-81.214926,38.154233],[-81.2145,38.156017],[-81.214271,38.156848],[-81.214006,38.157484],[-81.213172,38.158467],[-81.212385,38.159239],[-81.211632,38.159831],[-81.209545,38.16113],[-81.208542,38.161638],[-81.207585,38.16202],[-81.206115,38.162444],[-81.202298,38.163226],[-81.199638,38.163646],[-81.198424,38.16366],[-81.197299,38.163428],[-81.194327,38.162189],[-81.190424,38.160734],[-81.189579,38.160235],[-81.188403,38.159426],[-81.185922,38.157954],[-81.185473,38.157643],[-81.18503,38.157284],[-81.183958,38.155915],[-81.182374,38.154491],[-81.181633,38.154134],[-81.180595,38.154134],[-81.180371,38.154099],[-81.180145,38.153991],[-81.179463,38.153168],[-81.179124,38.152399],[-81.178611,38.151807],[-81.178121,38.151403],[-81.177066,38.150766],[-81.176778,38.150494],[-81.176504,38.150038],[-81.176233,38.149784],[-81.17589,38.149592],[-81.175268,38.149378],[-81.174962,38.149168],[-81.173425,38.147604],[-81.173146,38.147307],[-81.173042,38.147067],[-81.172747,38.145523],[-81.1726,38.145108],[-81.172495,38.144504],[-81.17244,38.143469],[-81.172089,38.142599],[-81.172041,38.142244],[-81.17235,38.141359],[-81.172366,38.140603],[-81.172668,38.138618],[-81.172856,38.138225],[-81.173037,38.137669],[-81.173,38.137444],[-81.172653,38.136945],[-81.172597,38.136596],[-81.172558,38.135654],[-81.172402,38.135458],[-81.171998,38.135405],[-81.171567,38.135623],[-81.171318,38.135909],[-81.171206,38.136111],[-81.17093,38.136777],[-81.170535,38.137101],[-81.169186,38.137785],[-81.167844,38.138188],[-81.16758,38.138381],[-81.167229,38.138889],[-81.16699,38.139052],[-81.16631,38.139151],[-81.165783,38.139497],[-81.165051,38.139769],[-81.164506,38.140094],[-81.162966,38.140619],[-81.162695,38.140894],[-81.162493,38.141233],[-81.162386,38.141313],[-81.16212,38.141371],[-81.161451,38.1412],[-81.161018,38.141212],[-81.160645,38.141324],[-81.160203,38.141614],[-81.159967,38.141676],[-81.159345,38.141519],[-81.159219,38.141528],[-81.158779,38.141802],[-81.157715,38.142263],[-81.157562,38.142415],[-81.1575,38.142733],[-81.157333,38.143147],[-81.1568,38.143792],[-81.156513,38.144267],[-81.156329,38.144374],[-81.15606,38.144337],[-81.155531,38.14396],[-81.154767,38.14288],[-81.154554,38.142671],[-81.154294,38.142539],[-81.153722,38.142591],[-81.153511,38.142551],[-81.153237,38.142413],[-81.152873,38.14213],[-81.152563,38.142085],[-81.15232,38.142176],[-81.152197,38.142374],[-81.15211,38.142668],[-81.151953,38.142775],[-81.151492,38.142743],[-81.151164,38.142604],[-81.150856,38.142321],[-81.150293,38.14152],[-81.15007,38.141292],[-81.149008,38.140468],[-81.148846,38.140388],[-81.148356,38.14034],[-81.147866,38.140432],[-81.147056,38.141051],[-81.146725,38.141435],[-81.146549,38.141492],[-81.146425,38.141419],[-81.146454,38.141195],[-81.146883,38.140147],[-81.147116,38.139274],[-81.147214,38.138585],[-81.14711,38.13784],[-81.14718,38.137468],[-81.147532,38.136828],[-81.147575,38.136466],[-81.147731,38.136005],[-81.148055,38.135591],[-81.148757,38.134893],[-81.14887,38.134691],[-81.148934,38.134372],[-81.148909,38.133666],[-81.148706,38.133042],[-81.148241,38.131966],[-81.147816,38.131288],[-81.147688,38.130784],[-81.147442,38.130361],[-81.147279,38.129919],[-81.146776,38.129318],[-81.146487,38.128663],[-81.146136,38.128252],[-81.146029,38.128052],[-81.145906,38.127606],[-81.145501,38.126935],[-81.145442,38.126202],[-81.145352,38.125882],[-81.145085,38.125516],[-81.144328,38.124924],[-81.144055,38.124246],[-81.143981,38.123961],[-81.143916,38.123125],[-81.143631,38.1165],[-81.143462,38.116037],[-81.142879,38.114996],[-81.142858,38.114719],[-81.14297,38.114475],[-81.143151,38.114298],[-81.145537,38.112785],[-81.145888,38.112487],[-81.146019,38.112308],[-81.146482,38.111502],[-81.146451,38.110706],[-81.146493,38.109723],[-81.146725,38.108872],[-81.146912,38.108593],[-81.147176,38.108351],[-81.147329,38.108277],[-81.148154,38.108034],[-81.148642,38.107753],[-81.149097,38.107588],[-81.149327,38.107409],[-81.149396,38.107281],[-81.149393,38.107007],[-81.149327,38.106892],[-81.148473,38.106286],[-81.148292,38.106053],[-81.148222,38.105795],[-81.148337,38.104438],[-81.148078,38.103392],[-81.148095,38.103148],[-81.14835,38.102007],[-81.148407,38.101118],[-81.148488,38.100929],[-81.148661,38.100725],[-81.149102,38.100366],[-81.149645,38.10008],[-81.150044,38.100047],[-81.151936,38.100304],[-81.152241,38.100298],[-81.152596,38.100208],[-81.153001,38.099825],[-81.153541,38.099028],[-81.153661,38.098746],[-81.153722,38.098254],[-81.153598,38.097748],[-81.153265,38.097315],[-81.152938,38.097059],[-81.15138,38.096386],[-81.150125,38.095222],[-81.147491,38.093388],[-81.146748,38.092951],[-81.14625,38.092729],[-81.144889,38.092267],[-81.143369,38.092039],[-81.141529,38.091896],[-81.139459,38.0919],[-81.134286,38.092417],[-81.133839,38.092578],[-81.13064,38.094265],[-81.129492,38.094753],[-81.124141,38.096358],[-81.122992,38.09665],[-81.122428,38.096687],[-81.121678,38.096634],[-81.116548,38.096101],[-81.115883,38.096009],[-81.115404,38.095781],[-81.115072,38.095422],[-81.114673,38.094593],[-81.114239,38.094005],[-81.111726,38.09207],[-81.111493,38.09178],[-81.111286,38.091307],[-81.111226,38.090815],[-81.111047,38.078899],[-81.110882,38.078201],[-81.1098,38.075047],[-81.10826,38.070853],[-81.105867,38.064108],[-81.105905,38.063312],[-81.106339,38.060662],[-81.106302,38.060047],[-81.106189,38.059515],[-81.106042,38.059177],[-81.105159,38.057438],[-81.092161,38.063888],[-81.089996,38.065055],[-81.076841,38.071825],[-81.075716,38.072455],[-81.074531,38.07323],[-81.074322,38.072993],[-81.074291,38.072738],[-81.074409,38.072486],[-81.074982,38.071703],[-81.075073,38.071256],[-81.07511,38.070724],[-81.07508,38.070631],[-81.074894,38.070533],[-81.074415,38.070435],[-81.072807,38.07024],[-81.073405,38.069991],[-81.074004,38.06962],[-81.074153,38.06946],[-81.07419,38.069103],[-81.074118,38.068976],[-81.073518,38.068928],[-81.073308,38.068786],[-81.073376,38.068597],[-81.073477,38.06851],[-81.073498,38.068675],[-81.073621,38.068786],[-81.074315,38.068797],[-81.074376,38.068911],[-81.074429,38.069426],[-81.074526,38.06954],[-81.074632,38.069583],[-81.075404,38.06946],[-81.076136,38.0692],[-81.076485,38.069455],[-81.076674,38.069485],[-81.077219,38.069373],[-81.077366,38.069407],[-81.077708,38.069732],[-81.077982,38.069854],[-81.078288,38.069865],[-81.078624,38.069962],[-81.078843,38.070078],[-81.079201,38.070568],[-81.0797,38.070849],[-81.080384,38.071827],[-81.080364,38.072066],[-81.080209,38.072222],[-81.079928,38.072356],[-81.079756,38.072514],[-81.079727,38.072671],[-81.080042,38.073676],[-81.080424,38.074172],[-81.080375,38.075135],[-81.080076,38.075567],[-81.079981,38.075797],[-81.079981,38.076064],[-81.08021,38.076408],[-81.080469,38.076621],[-81.080637,38.076843],[-81.080698,38.077026],[-81.080698,38.077331],[-81.080513,38.07793],[-81.080557,38.078002],[-81.080617,38.077974],[-81.080954,38.077157],[-81.08097,38.07697],[-81.080744,38.076362],[-81.080744,38.076057],[-81.080959,38.07553],[-81.081331,38.074994],[-81.081345,38.074614],[-81.081583,38.074249],[-81.081743,38.073812],[-81.081771,38.073309],[-81.081608,38.073051],[-81.081612,38.072952],[-81.081964,38.072569],[-81.082055,38.072364],[-81.081973,38.071899],[-81.081883,38.071682],[-81.081829,38.071043],[-81.081605,38.070505],[-81.081263,38.070152],[-81.081034,38.069816],[-81.08063,38.069363],[-81.080148,38.068965],[-81.079813,38.06858],[-81.079523,38.068366],[-81.079185,38.068195],[-81.079109,38.068096],[-81.079134,38.068049],[-81.079238,38.068063],[-81.080067,38.068425],[-81.080607,38.068734],[-81.080682,38.06872],[-81.080675,38.068644],[-81.07943,38.067785],[-81.079238,38.067591],[-81.078751,38.067448],[-81.078548,38.067321],[-81.0781,38.066816],[-81.077648,38.066423],[-81.076507,38.06558],[-81.076453,38.065498],[-81.076578,38.065272],[-81.077517,38.064384],[-81.077648,38.064329],[-81.078104,38.064636],[-81.07931,38.065292],[-81.079833,38.065492],[-81.080189,38.065562],[-81.081183,38.064314],[-81.081363,38.064214],[-81.081535,38.06425],[-81.081791,38.064455],[-81.081834,38.064562],[-81.081643,38.065316],[-81.081629,38.065727],[-81.08168,38.065899],[-81.0823,38.066245],[-81.083247,38.067115],[-81.083452,38.067254],[-81.083543,38.067226],[-81.083486,38.067102],[-81.083193,38.066917],[-81.082362,38.065986],[-81.082239,38.065727],[-81.082239,38.065505],[-81.082468,38.064582],[-81.082505,38.063837],[-81.082606,38.063315],[-81.082362,38.062789],[-81.082021,38.06167],[-81.081793,38.061365],[-81.081231,38.060394],[-81.080472,38.059699],[-81.080452,38.059584],[-81.080538,38.059537],[-81.081245,38.060047],[-81.08149,38.060293],[-81.0825,38.061441],[-81.082883,38.062034],[-81.083,38.06239],[-81.083414,38.062782],[-81.083521,38.063003],[-81.083545,38.063216],[-81.08339,38.06388],[-81.083517,38.064289],[-81.083413,38.064801],[-81.083464,38.065156],[-81.083523,38.065271],[-81.084217,38.065817],[-81.085098,38.066289],[-81.08541,38.066899],[-81.085892,38.067537],[-81.086054,38.06785],[-81.086446,38.068064],[-81.086621,38.06822],[-81.086698,38.06837],[-81.086655,38.068966],[-81.086741,38.069132],[-81.087495,38.069543],[-81.087617,38.069734],[-81.087654,38.069969],[-81.087575,38.070296],[-81.087703,38.070505],[-81.087924,38.070708],[-81.087944,38.070863],[-81.087876,38.071105],[-81.088029,38.071323],[-81.088205,38.071403],[-81.088345,38.071532],[-81.088372,38.071842],[-81.088138,38.07244],[-81.088656,38.073165],[-81.088565,38.074926],[-81.088483,38.075467],[-81.088361,38.075898],[-81.088449,38.076072],[-81.088584,38.076177],[-81.088866,38.076202],[-81.090999,38.076212],[-81.091132,38.076145],[-81.092292,38.07483],[-81.092506,38.074652],[-81.092822,38.074482],[-81.093343,38.074341],[-81.094119,38.074353],[-81.09495,38.074211],[-81.095517,38.073641],[-81.095853,38.073443],[-81.096044,38.073197],[-81.096052,38.072977],[-81.095791,38.072419],[-81.095776,38.072158],[-81.095855,38.071942],[-81.09627,38.071349],[-81.096391,38.070848],[-81.096401,38.070534],[-81.096485,38.070291],[-81.096666,38.070066],[-81.097493,38.069706],[-81.098661,38.068976],[-81.099188,38.068357],[-81.099464,38.067594],[-81.099599,38.067368],[-81.100172,38.066978],[-81.100714,38.06649],[-81.100944,38.06615],[-81.100965,38.065799],[-81.100647,38.065078],[-81.100562,38.064966],[-81.099797,38.064392],[-81.099578,38.064164],[-81.099351,38.063818],[-81.099316,38.063646],[-81.099344,38.062138],[-81.099266,38.061848],[-81.099174,38.061639],[-81.098982,38.061392],[-81.09849,38.06093],[-81.105238,38.057608],[-81.104856,38.05683],[-81.10479,38.056509],[-81.104793,38.056242],[-81.105055,38.055488],[-81.105102,38.055239],[-81.105091,38.05495],[-81.104503,38.053349],[-81.103063,38.052291],[-81.102474,38.051894],[-81.101003,38.051034],[-81.100822,38.050853],[-81.100594,38.050523],[-81.100484,38.050184],[-81.100477,38.049595],[-81.100565,38.04936],[-81.106832,38.040641],[-81.107482,38.0398],[-81.11229,38.033067],[-81.112801,38.031989],[-81.113432,38.030057],[-81.113067,38.030151],[-81.112763,38.030158],[-81.111805,38.029918],[-81.111433,38.029892],[-81.111805,38.029918],[-81.112763,38.030158],[-81.113067,38.030151],[-81.113432,38.030057],[-81.114784,38.025965],[-81.11536,38.024406],[-81.11643,38.02103],[-81.116969,38.019851],[-81.117728,38.018681],[-81.118699,38.01768],[-81.122942,38.013872],[-81.124383,38.012232],[-81.124917,38.011689],[-81.125471,38.011239],[-81.127154,38.010051],[-81.127963,38.00942],[-81.128674,38.008778],[-81.129339,38.00802],[-81.129689,38.007533],[-81.13,38.007046],[-81.130427,38.006179],[-81.130575,38.006015],[-81.131005,38.005763],[-81.130867,38.005168],[-81.130872,38.004331],[-81.132227,37.993698],[-81.13237,37.993112],[-81.132594,37.992402],[-81.133129,37.991317],[-81.135533,37.987221],[-81.137607,37.983542],[-81.137971,37.982586],[-81.139046,37.978474],[-81.139422,37.977403],[-81.139766,37.976981],[-81.141219,37.976012],[-81.141695,37.974944],[-81.141912,37.974622],[-81.142107,37.974427],[-81.142527,37.974119],[-81.143964,37.973284],[-81.145899,37.972381],[-81.146655,37.971933],[-81.147045,37.971589],[-81.147385,37.971198],[-81.147664,37.970721],[-81.147827,37.970285],[-81.147928,37.969645],[-81.147899,37.969217],[-81.147465,37.967409],[-81.147336,37.966443],[-81.147317,37.96375],[-81.147386,37.962869],[-81.147647,37.961717],[-81.14795,37.960941],[-81.148227,37.960501],[-81.148785,37.959949],[-81.148418,37.959654],[-81.148354,37.959553],[-81.148355,37.959404],[-81.149222,37.95636],[-81.149542,37.950317],[-81.149682,37.949464],[-81.152746,37.941002],[-81.153021,37.940141],[-81.153187,37.93884],[-81.15325,37.933986],[-81.153326,37.933468],[-81.153514,37.932901],[-81.153872,37.932174],[-81.154208,37.931655],[-81.156269,37.929039],[-81.156168,37.928912],[-81.156269,37.929039],[-81.15661,37.928568],[-81.156813,37.928082],[-81.157004,37.926721],[-81.157302,37.926043],[-81.158095,37.92445],[-81.159634,37.922063],[-81.159938,37.92171],[-81.160152,37.921538],[-81.161765,37.920501],[-81.162655,37.920095],[-81.163682,37.919819],[-81.164075,37.919683],[-81.16447,37.919473],[-81.165003,37.918981],[-81.165308,37.918449],[-81.165386,37.918158],[-81.165399,37.917643],[-81.165337,37.91732],[-81.164743,37.915409],[-81.164376,37.914439],[-81.164058,37.913935],[-81.163356,37.913232],[-81.162066,37.912308],[-81.161673,37.911862],[-81.161493,37.911502],[-81.161399,37.911174],[-81.161326,37.910051],[-81.16125,37.909588],[-81.161099,37.909335],[-81.160881,37.90911],[-81.160219,37.908668],[-81.158858,37.907925],[-81.157367,37.907557],[-81.157024,37.907313],[-81.154013,37.901887],[-81.153841,37.901544],[-81.15369,37.900905],[-81.153768,37.900386],[-81.153912,37.90001],[-81.154114,37.89973],[-81.155876,37.897963],[-81.156684,37.897307],[-81.159081,37.89583],[-81.159998,37.894998],[-81.162337,37.891725],[-81.162121,37.891606],[-81.161781,37.891297],[-81.161108,37.889993],[-81.160995,37.889413],[-81.161027,37.888223],[-81.160815,37.887462],[-81.160246,37.88677],[-81.159776,37.88645],[-81.156702,37.885119],[-81.156313,37.884864],[-81.155773,37.884289],[-81.154696,37.882966],[-81.153395,37.881711],[-81.151905,37.880542],[-81.150183,37.879416],[-81.149448,37.879102],[-81.148691,37.878882],[-81.147971,37.87876],[-81.147199,37.878715],[-81.145592,37.878877],[-81.145028,37.87884],[-81.14472,37.878785],[-81.14415,37.87859],[-81.143594,37.87826],[-81.143319,37.878001],[-81.142962,37.877542],[-81.141066,37.87493],[-81.140473,37.873982],[-81.140324,37.873586],[-81.140204,37.873019],[-81.140054,37.871476],[-81.13984,37.870165],[-81.139667,37.869788],[-81.139262,37.869162],[-81.138979,37.868832],[-81.138534,37.86849],[-81.13796,37.868191],[-81.136577,37.867619],[-81.136135,37.867381],[-81.135374,37.866841],[-81.134382,37.865965],[-81.13381,37.865633],[-81.132051,37.865036],[-81.131573,37.864964],[-81.130747,37.864977],[-81.127782,37.865582],[-81.127169,37.865501],[-81.126898,37.865366],[-81.126688,37.865188],[-81.126466,37.864814],[-81.126346,37.863446],[-81.125988,37.862323],[-81.125619,37.861379],[-81.125565,37.860904],[-81.125725,37.860113],[-81.126536,37.857669],[-81.126623,37.857264],[-81.126666,37.855701],[-81.126774,37.85497],[-81.126983,37.854559],[-81.127417,37.854084],[-81.133789,37.84907],[-81.133994,37.848685],[-81.133972,37.848312],[-81.133781,37.84798],[-81.133597,37.847819],[-81.133273,37.847677],[-81.132988,37.847629],[-81.132738,37.847651],[-81.130312,37.847539],[-81.130027,37.847646],[-81.129639,37.848088],[-81.129402,37.848128],[-81.128296,37.847598],[-81.126755,37.8474],[-81.126077,37.847394],[-81.12356,37.846373],[-81.123323,37.84638],[-81.122704,37.84658],[-81.122446,37.846557],[-81.122225,37.846363],[-81.121964,37.845764],[-81.120424,37.844359],[-81.119557,37.843722],[-81.118789,37.843507],[-81.118464,37.843538],[-81.117983,37.843925],[-81.117738,37.843988],[-81.117558,37.843949],[-81.117105,37.843593],[-81.116958,37.843531],[-81.115499,37.843217],[-81.115056,37.843206],[-81.114848,37.843313],[-81.113946,37.844153],[-81.113665,37.844222],[-81.113574,37.844116],[-81.113554,37.843824],[-81.113412,37.843514],[-81.113173,37.843307],[-81.112711,37.843191],[-81.112387,37.843197],[-81.111972,37.843306],[-81.111523,37.843323],[-81.11063,37.843275],[-81.109748,37.843107],[-81.109162,37.843066],[-81.108499,37.843116],[-81.107707,37.843287],[-81.10622,37.843338],[-81.105061,37.843475],[-81.102016,37.84342],[-81.10143,37.84329],[-81.100295,37.842798],[-81.099789,37.842638],[-81.099471,37.84261],[-81.09895,37.842699],[-81.097358,37.843465],[-81.095847,37.844668],[-81.095734,37.844823],[-81.095538,37.845343],[-81.09501,37.846103],[-81.094689,37.846716],[-81.094202,37.84833],[-81.094053,37.848493],[-81.093861,37.848591],[-81.092312,37.848738],[-81.09108,37.848714],[-81.090647,37.848781],[-81.088542,37.848913],[-81.086829,37.849162],[-81.085101,37.849508],[-81.082786,37.850116],[-81.07559,37.852442],[-81.074144,37.852776],[-81.071922,37.852997],[-81.071679,37.85316],[-81.071277,37.854081],[-81.071018,37.854833],[-81.07093,37.85492],[-81.069221,37.85562],[-81.068766,37.855765],[-81.06747,37.855871],[-81.066581,37.856182],[-81.065471,37.85594],[-81.064975,37.855881],[-81.063802,37.855922],[-81.062875,37.856042],[-81.061751,37.856445],[-81.058745,37.857007],[-81.057156,37.857469],[-81.056531,37.857701],[-81.05416,37.858991],[-81.053404,37.859243],[-81.052777,37.859351],[-81.050015,37.859477],[-81.0492,37.859332],[-81.048893,37.859164],[-81.047346,37.857567],[-81.047014,37.85706],[-81.046427,37.855832],[-81.04598,37.855227],[-81.045152,37.854685],[-81.043218,37.853642],[-81.042961,37.853593],[-81.042705,37.853616],[-81.041655,37.853865],[-81.041395,37.853878],[-81.040843,37.853782],[-81.040514,37.853633],[-81.040146,37.853358],[-81.039082,37.852203],[-81.038661,37.851835],[-81.037926,37.851542],[-81.036981,37.851481],[-81.036473,37.851364],[-81.035574,37.850702],[-81.034561,37.850083],[-81.034312,37.849989],[-81.034031,37.849918],[-81.032694,37.849964],[-81.031891,37.849926],[-81.029786,37.849737],[-81.02946,37.849767],[-81.028409,37.850067],[-81.027699,37.85019],[-81.027043,37.850149],[-81.026233,37.85],[-81.025638,37.850023],[-81.025289,37.850163],[-81.024507,37.850623],[-81.023845,37.851307],[-81.022985,37.852421],[-81.022668,37.852949],[-81.022396,37.853789],[-81.021882,37.854534],[-81.020612,37.85601],[-81.020023,37.856846],[-81.019611,37.857116],[-81.019199,37.857228],[-81.01846,37.85723],[-81.016995,37.856898],[-81.016233,37.856792],[-81.01441,37.856962],[-81.012752,37.856955],[-81.012201,37.857049],[-81.011097,37.857466],[-81.01057,37.857599],[-81.010015,37.857595],[-81.008872,37.857488],[-81.008244,37.857533],[-81.00778,37.857665],[-81.005863,37.858448],[-81.005322,37.858601],[-81.003959,37.858848],[-81.003445,37.858801],[-81.002146,37.858537],[-81.000681,37.857992],[-80.998989,37.857227],[-80.998365,37.856997],[-80.997315,37.856651],[-80.996442,37.856521],[-80.995691,37.856597],[-80.994942,37.856808],[-80.992763,37.857555],[-80.991142,37.858294],[-80.990449,37.858432],[-80.989261,37.858529],[-80.988597,37.858659],[-80.987957,37.858895],[-80.987499,37.859168],[-80.986761,37.860016],[-80.986291,37.860383],[-80.985421,37.860821],[-80.984197,37.86117],[-80.983675,37.86146],[-80.983254,37.861837],[-80.982057,37.864213],[-80.981746,37.864588],[-80.980729,37.865412],[-80.980189,37.866062],[-80.979983,37.866758],[-80.979874,37.868233],[-80.979822,37.868477],[-80.979697,37.868737],[-80.979439,37.869038],[-80.978873,37.869359],[-80.97835,37.869833],[-80.977527,37.871099],[-80.977002,37.871698],[-80.976467,37.872029],[-80.975856,37.872262],[-80.975214,37.872677],[-80.97493,37.872897],[-80.974567,37.873384],[-80.974394,37.873802],[-80.974283,37.875113],[-80.97431,37.875754],[-80.974229,37.87618],[-80.973397,37.877715],[-80.97311,37.878392],[-80.97308,37.878654],[-80.973125,37.878992],[-80.973408,37.879903],[-80.973365,37.880533],[-80.973195,37.880886],[-80.972305,37.882007],[-80.972216,37.882235],[-80.972242,37.882471],[-80.972363,37.882689],[-80.97272,37.883156],[-80.973043,37.883706],[-80.973121,37.884206],[-80.97309,37.884422],[-80.972912,37.884849],[-80.970809,37.888035],[-80.970715,37.888372],[-80.970794,37.888752],[-80.97155,37.889557],[-80.971778,37.88996],[-80.971885,37.890496],[-80.971837,37.891054],[-80.971525,37.891875],[-80.971208,37.892519],[-80.970125,37.894277],[-80.969779,37.89472],[-80.96806,37.896494],[-80.966836,37.897867],[-80.96661,37.898476],[-80.965839,37.901904],[-80.965541,37.903041],[-80.96523,37.903685],[-80.96486,37.904146],[-80.964653,37.904282],[-80.963571,37.904711],[-80.963314,37.904907],[-80.963138,37.905083],[-80.962631,37.905908],[-80.962328,37.906166],[-80.960608,37.906845],[-80.959835,37.90721],[-80.955937,37.909755],[-80.955532,37.910066],[-80.952969,37.912657],[-80.95067,37.914282],[-80.950398,37.91463],[-80.94985,37.915586],[-80.949515,37.915895],[-80.948677,37.916323],[-80.948278,37.916602],[-80.944444,37.920792],[-80.940372,37.923814],[-80.938356,37.924917],[-80.937788,37.925142],[-80.931039,37.926867],[-80.930355,37.926918],[-80.926713,37.926909],[-80.926224,37.926877],[-80.925458,37.926664],[-80.922673,37.924636],[-80.922251,37.924432],[-80.921929,37.924322],[-80.92157,37.924275],[-80.919882,37.924197],[-80.919268,37.924248],[-80.918589,37.924529],[-80.917409,37.925222],[-80.917085,37.925314],[-80.915609,37.925453],[-80.911943,37.925679],[-80.910184,37.926058],[-80.909115,37.926417],[-80.908321,37.926884],[-80.903636,37.930036],[-80.902906,37.930677],[-80.902472,37.931389],[-80.902341,37.931836],[-80.902297,37.932103],[-80.902365,37.93328],[-80.902791,37.937687],[-80.90294,37.938611],[-80.903138,37.938939],[-80.906252,37.941974],[-80.906694,37.942367],[-80.907119,37.942637],[-80.912109,37.944889],[-80.912594,37.944981],[-80.913922,37.945031],[-80.91688,37.945776],[-80.91724,37.945958],[-80.917658,37.946415],[-80.918378,37.948401],[-80.918544,37.948722],[-80.91884,37.949118],[-80.920825,37.951335],[-80.921219,37.951871],[-80.921404,37.952515],[-80.920905,37.955087],[-80.920779,37.955423],[-80.920619,37.955724],[-80.917938,37.958219],[-80.91776,37.958429],[-80.917575,37.958675],[-80.917163,37.959502],[-80.917113,37.95983],[-80.917251,37.96018],[-80.917634,37.960548],[-80.918112,37.960774],[-80.918827,37.960978],[-80.919358,37.96121],[-80.919521,37.961366],[-80.919634,37.96156],[-80.919691,37.961892],[-80.919861,37.962228],[-80.919967,37.962334],[-80.920276,37.962483],[-80.921014,37.962668],[-80.921321,37.962853],[-80.921624,37.963148],[-80.921853,37.963698],[-80.921816,37.966817],[-80.92187,37.967103],[-80.921942,37.967219],[-80.922177,37.967432],[-80.922606,37.967582],[-80.923109,37.967546],[-80.923749,37.967367],[-80.924141,37.967345],[-80.924445,37.967394],[-80.926574,37.968272],[-80.92721,37.96866],[-80.92746,37.968966],[-80.927623,37.969388],[-80.927619,37.969687],[-80.927454,37.970502],[-80.92758,37.971063],[-80.928031,37.97192],[-80.928229,37.972138],[-80.928647,37.972383],[-80.929285,37.972438],[-80.931287,37.972167],[-80.934681,37.972314],[-80.935169,37.972377],[-80.937182,37.972906],[-80.937502,37.973055],[-80.937726,37.973313],[-80.937849,37.973552],[-80.938436,37.975229],[-80.938719,37.975696],[-80.939252,37.976222],[-80.939477,37.976535],[-80.940382,37.978571],[-80.940502,37.978973],[-80.94048,37.979421],[-80.940409,37.979593],[-80.940113,37.979998],[-80.939281,37.980864],[-80.938588,37.98198],[-80.938382,37.982482],[-80.938371,37.982841],[-80.938491,37.983281],[-80.939216,37.984875],[-80.939518,37.985197],[-80.940548,37.986044],[-80.940865,37.986508],[-80.940975,37.986891],[-80.940997,37.987416],[-80.940824,37.98857],[-80.940737,37.988838],[-80.940615,37.989034],[-80.940253,37.989305],[-80.938012,37.990442],[-80.937692,37.990655],[-80.937317,37.991064],[-80.936999,37.991581],[-80.936951,37.991732],[-80.936963,37.992006],[-80.937066,37.992416],[-80.937298,37.992895],[-80.938995,37.994749],[-80.94085,37.996027],[-80.941653,37.99686],[-80.941957,37.997239],[-80.942128,37.997591],[-80.942335,37.998319],[-80.942662,37.999959],[-80.943414,38.001787],[-80.944117,38.003016],[-80.944109,38.004115],[-80.943702,38.004205],[-80.94345,38.004329],[-80.942592,38.004858],[-80.941962,38.005372],[-80.941603,38.005553],[-80.941212,38.005709],[-80.940076,38.005903],[-80.939473,38.005903],[-80.938799,38.005831],[-80.936107,38.005416],[-80.933673,38.004914],[-80.933463,38.004725],[-80.932781,38.004908],[-80.931387,38.005472],[-80.93038,38.006117],[-80.923157,38.011763],[-80.922247,38.012218],[-80.921167,38.01257],[-80.920549,38.012831],[-80.919571,38.013473],[-80.914422,38.017695],[-80.913708,38.018396],[-80.912463,38.02003],[-80.912474,38.020254],[-80.912642,38.020629],[-80.915649,38.022185],[-80.916354,38.022658],[-80.916535,38.022902],[-80.916615,38.023121],[-80.916637,38.02343],[-80.916598,38.023656],[-80.916442,38.023963],[-80.914535,38.025895],[-80.914343,38.026498],[-80.914371,38.026898],[-80.915586,38.029424],[-80.917743,38.034902],[-80.918019,38.035358],[-80.91879,38.036307],[-80.921401,38.038656],[-80.922183,38.039613],[-80.922436,38.040111],[-80.923372,38.042864],[-80.925433,38.046297],[-80.92681,38.048481],[-80.927847,38.050403],[-80.928258,38.050979],[-80.928806,38.051297],[-80.929485,38.051504],[-80.929456,38.051622],[-80.929313,38.051882],[-80.929025,38.052048],[-80.92654,38.053132],[-80.925943,38.053555],[-80.920818,38.058268],[-80.918509,38.061052],[-80.917707,38.062238],[-80.916604,38.063469],[-80.915643,38.06445],[-80.914176,38.0658],[-80.9128,38.066854],[-80.911417,38.067812],[-80.908956,38.069184],[-80.907189,38.069946],[-80.903553,38.071369],[-80.900773,38.073131],[-80.900396,38.073268],[-80.896517,38.073886],[-80.895235,38.073827],[-80.893259,38.073591],[-80.892433,38.073752],[-80.89218,38.073967],[-80.89196,38.074225],[-80.891799,38.074776],[-80.891846,38.075162],[-80.892462,38.077229],[-80.892684,38.077587],[-80.89363,38.078253],[-80.894096,38.078701],[-80.894504,38.079447],[-80.894619,38.079935],[-80.894647,38.081313],[-80.894593,38.08165],[-80.894314,38.082123],[-80.894116,38.082275],[-80.893638,38.082524],[-80.893159,38.082668],[-80.892663,38.082676],[-80.887537,38.082392],[-80.886799,38.082477],[-80.886308,38.082625],[-80.885747,38.082965],[-80.885233,38.083506],[-80.884904,38.083966],[-80.883946,38.0859],[-80.883339,38.086932],[-80.882911,38.088025],[-80.882906,38.088426],[-80.883084,38.08889],[-80.883347,38.089256],[-80.883556,38.089473],[-80.884798,38.090473],[-80.885168,38.090821],[-80.885472,38.091187],[-80.885657,38.091488],[-80.885818,38.091947],[-80.885805,38.092463],[-80.885711,38.092902],[-80.885562,38.093167],[-80.884016,38.095603],[-80.882673,38.098732],[-80.882613,38.098986],[-80.882613,38.099878],[-80.882923,38.102321],[-80.882905,38.102758],[-80.882792,38.10326],[-80.882565,38.103692],[-80.880962,38.105792],[-80.880462,38.106407],[-80.880129,38.106711],[-80.879628,38.106927],[-80.879282,38.107017],[-80.877316,38.107389],[-80.876751,38.107689],[-80.876584,38.107849],[-80.876387,38.108176],[-80.875975,38.109521],[-80.875933,38.109793],[-80.875957,38.11054],[-80.876008,38.11084],[-80.876242,38.111482],[-80.876549,38.112027],[-80.878347,38.114476],[-80.879095,38.115006],[-80.879604,38.11528],[-80.880593,38.115581],[-80.882995,38.116035],[-80.883944,38.116435],[-80.884369,38.116725],[-80.884994,38.117388],[-80.886036,38.119344],[-80.886254,38.119896],[-80.886409,38.120558],[-80.886439,38.121014],[-80.886379,38.122042],[-80.885851,38.124623],[-80.885595,38.125378],[-80.885407,38.125755],[-80.884955,38.126425],[-80.882947,38.128945],[-80.882026,38.130181],[-80.881699,38.130842],[-80.881461,38.131988],[-80.881473,38.132349],[-80.881578,38.132947],[-80.88186,38.133693],[-80.882236,38.134352],[-80.882828,38.13503],[-80.885015,38.136889],[-80.88518,38.137086],[-80.885347,38.137331],[-80.885499,38.137798],[-80.885502,38.138342],[-80.885335,38.138767],[-80.884995,38.139205],[-80.883757,38.140399],[-80.883095,38.140966],[-80.88227,38.141445],[-80.881214,38.141912],[-80.87864,38.142822],[-80.878043,38.143188],[-80.877557,38.143645],[-80.877385,38.143869],[-80.877127,38.144379],[-80.877039,38.144666],[-80.876977,38.145227],[-80.87745,38.147345],[-80.877437,38.148141],[-80.876584,38.15165],[-80.87627,38.152494],[-80.875923,38.152941],[-80.875623,38.153205],[-80.870265,38.156967],[-80.870159,38.157065],[-80.870073,38.157243],[-80.87011,38.157562],[-80.870263,38.157731],[-80.870463,38.157859],[-80.870797,38.157917],[-80.871873,38.157815],[-80.872365,38.157844],[-80.872751,38.157937],[-80.873707,38.15832],[-80.873872,38.158509],[-80.873992,38.158785],[-80.874508,38.161834],[-80.874421,38.162328],[-80.87403,38.163049],[-80.873884,38.163556],[-80.873865,38.165642],[-80.873952,38.165959],[-80.87415,38.166295],[-80.875198,38.167713],[-80.875337,38.168004],[-80.875378,38.168311],[-80.875333,38.168747],[-80.874342,38.171554],[-80.874245,38.171896],[-80.874241,38.172112],[-80.874391,38.172415],[-80.875181,38.173579],[-80.875242,38.173876],[-80.875152,38.174105],[-80.875024,38.174207],[-80.874621,38.174352],[-80.872404,38.174522],[-80.871182,38.174786],[-80.870345,38.175061],[-80.869875,38.175412],[-80.867127,38.178372],[-80.867226,38.17894],[-80.86746,38.179072],[-80.867516,38.179761],[-80.867478,38.180152],[-80.868291,38.180655],[-80.869451,38.181204],[-80.869886,38.181616],[-80.870409,38.182394],[-80.870641,38.1826],[-80.871395,38.182783],[-80.872556,38.182942],[-80.872933,38.183148],[-80.872992,38.18443],[-80.872934,38.184545],[-80.871948,38.185278],[-80.871717,38.185575],[-80.871717,38.186033],[-80.873811,38.188187],[-80.874139,38.189135],[-80.87428,38.189409],[-80.863434,38.195464],[-80.861762,38.196592],[-80.867091,38.199756],[-80.868999,38.201018],[-80.871,38.202479],[-80.871702,38.203109],[-80.872503,38.204022],[-80.872773,38.2044],[-80.872883,38.204637],[-80.872974,38.20512],[-80.872904,38.205624],[-80.872378,38.206901],[-80.872339,38.207279],[-80.87246,38.207688],[-80.872575,38.207889],[-80.872762,38.208081],[-80.873918,38.209049],[-80.87428,38.20957],[-80.875154,38.212149],[-80.875599,38.21417],[-80.875855,38.214646],[-80.876118,38.214962],[-80.876651,38.215403],[-80.878205,38.216298],[-80.878849,38.216787],[-80.879235,38.217276],[-80.879557,38.217832],[-80.880495,38.221013],[-80.880594,38.22124],[-80.881063,38.221775],[-80.881589,38.222085],[-80.883738,38.2229],[-80.88403,38.222951],[-80.887554,38.222965]]]},"properties":{"name":"Summersville Loop"}}]}