{"type":"FeatureCollection","features":[{"type":"Feature","geometry":{"type":"Point","coordinates":[-80.86653,38.199648]},"properties":{"id":"rec2UIqo6z4ASR4Zh","name":"Summersville Lake Retreat & Lighthouse","category":"Campground","certified":false,"_mi_from_route":0.0,"_region":"New River-Greenbrier Valley"}},{"type":"Feature","geometry":{"type":"Point","coordinates":[-80.97683,37.99444]},"properties":{"id":"recaZulDf1sNYRlzV","name":"Almost Heaven Swing - Babcock State Park","category":"Attraction","certified":false,"_mi_from_route":1.9,"_region":"New River-Greenbrier Valley"}},{"type":"Feature","geometry":{"type":"Point","coordinates":[-80.85603,38.24576]},"properties":{"id":"reccJOZojJdeSmGAY","name":"Almost Heaven Swing - Summersville Lake State Park","category":"Attraction","certified":false,"_mi_from_route":2.1,"_region":"Mountain Lakes"}}]}