{"type":"FeatureCollection","name":"West Virginia state outline and outside-state mask (dissolved from regions.geojson)","features":[{"type":"Feature","properties":{"kind":"outline"},"geometry":{"type":"Polygon","coordinates":[[[-82.6447,38.1655],[-82.6042,38.2473],[-82.5841,38.2465],[-82.5747,38.264],[-82.5719,38.3158],[-82.5954,38.3827],[-82.5937,38.4218],[-82.5603,38.4044],[-82.5067,38.4101],[-82.3305,38.4445],[-82.3139,38.4682],[-82.2913,38.579],[-82.2621,38.5982],[-82.194,38.5931],[-82.1774,38.6038],[-82.1721,38.6261],[-82.1883,38.734],[-82.199,38.7577],[-82.2204,38.7737],[-82.2216,38.7872],[-82.2157,38.7975],[-82.1844,38.8166],[-82.1393,38.8664],[-82.0932,38.971],[-82.0516,38.9944],[-82.036,39.0255],[-82.0176,39.0301],[-82.0023,39.0279],[-81.9356,38.9895],[-81.8985,38.9296],[-81.9266,38.9011],[-81.9267,38.8915],[-81.9086,38.8786],[-81.8748,38.8812],[-81.7603,38.9258],[-81.7561,38.9338],[-81.7643,39.0152],[-81.8034,39.0477],[-81.8142,39.0735],[-81.8124,39.0821],[-81.7475,39.0959],[-81.7499,39.1865],[-81.7399,39.1908],[-81.6957,39.2429],[-81.6059,39.2759],[-81.5423,39.3529],[-81.4561,39.4093],[-81.4356,39.4085],[-81.4127,39.3946],[-81.3938,39.3518],[-81.3843,39.3435],[-81.3568,39.3433],[-81.2707,39.3859],[-81.2156,39.3887],[-81.0201,39.5554],[-80.9438,39.6069],[-80.8803,39.6209],[-80.8319,39.7057],[-80.8062,39.8971],[-80.8087,39.9126],[-80.7403,39.9709],[-80.7331,40.0588],[-80.7055,40.153],[-80.6521,40.245],[-80.6167,40.2803],[-80.6,40.3175],[-80.6192,40.3818],[-80.5994,40.4823],[-80.6103,40.491],[-80.668,40.5825],[-80.6272,40.6199],[-80.5608,40.6237],[-80.519,40.6388],[-80.5191,39.7223],[-79.4767,39.7211],[-79.4863,39.2067],[-79.4028,39.2501],[-79.2569,39.3561],[-79.2131,39.368],[-79.0844,39.4714],[-79.0424,39.4793],[-79.0257,39.4655],[-78.9685,39.442],[-78.8747,39.5226],[-78.8248,39.5902],[-78.7875,39.6275],[-78.7605,39.61],[-78.7716,39.5943],[-78.7673,39.5874],[-78.6762,39.5406],[-78.566,39.5194],[-78.4687,39.5168],[-78.4368,39.5394],[-78.4324,39.5611],[-78.4585,39.5812],[-78.4302,39.6233],[-78.3552,39.6406],[-78.2711,39.6198],[-78.1828,39.6951],[-78.1078,39.6821],[-78.0746,39.6667],[-78.036,39.6357],[-78.0097,39.6028],[-77.9466,39.5849],[-77.9026,39.5878],[-77.8845,39.5682],[-77.8886,39.5556],[-77.8654,39.5165],[-77.845,39.4983],[-77.8078,39.4902],[-77.7392,39.3857],[-77.76,39.3388],[-77.719,39.3211],[-77.7504,39.2892],[-77.7688,39.2566],[-77.7714,39.2368],[-77.8282,39.1323],[-78.3468,39.4652],[-78.3621,39.3589],[-78.3405,39.3535],[-78.3997,39.2439],[-78.4379,39.1988],[-78.4107,39.172],[-78.4394,39.1322],[-78.4599,39.1134],[-78.5081,39.0886],[-78.5706,39.0331],[-78.5542,39.0197],[-78.6017,38.9646],[-78.7109,38.9102],[-78.7211,38.9219],[-78.7879,38.8852],[-78.8693,38.763],[-78.9932,38.8495],[-78.9997,38.8462],[-79.0552,38.7823],[-79.0573,38.7614],[-79.0923,38.6992],[-79.147,38.6256],[-79.21,38.4942],[-79.2674,38.4383],[-79.2817,38.4313],[-79.2803,38.4255],[-79.3123,38.4119],[-79.4766,38.4572],[-79.537,38.5509],[-79.6488,38.5907],[-79.6691,38.5109],[-79.6987,38.4752],[-79.6896,38.4425],[-79.7317,38.3741],[-79.8084,38.3094],[-79.7889,38.2687],[-79.9208,38.1806],[-79.9253,38.1505],[-79.9382,38.1305],[-79.931,38.1014],[-79.9598,38.0637],[-80.0025,37.9928],[-80.1305,37.8932],[-80.1622,37.8751],[-80.2573,37.7563],[-80.2639,37.7191],[-80.2957,37.691],[-80.2675,37.6461],[-80.221,37.6278],[-80.2403,37.607],[-80.2886,37.582],[-80.3124,37.5462],[-80.3296,37.5365],[-80.3148,37.5009],[-80.4756,37.423],[-80.4949,37.4351],[-80.5126,37.4811],[-80.7701,37.3724],[-80.777,37.3843],[-80.8116,37.4075],[-80.859,37.4285],[-80.8724,37.3725],[-80.8495,37.3469],[-80.9005,37.315],[-80.9665,37.2922],[-81.0348,37.2907],[-81.1127,37.2785],[-81.167,37.2629],[-81.2251,37.2349],[-81.3201,37.2993],[-81.3624,37.3371],[-81.3773,37.3184],[-81.3884,37.3194],[-81.4097,37.2848],[-81.5036,37.2504],[-81.5073,37.2338],[-81.5573,37.2077],[-81.6786,37.2025],[-81.6837,37.2116],[-81.7279,37.2396],[-81.7443,37.2442],[-81.7476,37.264],[-81.7579,37.2741],[-81.8541,37.2914],[-81.8545,37.3008],[-81.8786,37.3315],[-81.8938,37.3301],[-81.8997,37.3412],[-81.9266,37.3589],[-81.9339,37.3727],[-81.9275,37.4132],[-81.9357,37.4382],[-81.987,37.4549],[-81.9966,37.4767],[-81.9426,37.5088],[-81.9287,37.5126],[-81.9684,37.5378],[-81.998,37.543],[-82.0083,37.5334],[-82.0485,37.5311],[-82.1166,37.5596],[-82.1419,37.5951],[-82.297,37.6873],[-82.3257,37.7358],[-82.3192,37.7588],[-82.3299,37.7759],[-82.4177,37.8707],[-82.4747,37.9104],[-82.5004,37.9365],[-82.4652,37.9766],[-82.4656,37.9846],[-82.5197,38.0085],[-82.5473,38.0611],[-82.6,38.1172],[-82.6212,38.1232],[-82.6365,38.1379],[-82.6447,38.1655]]]}},{"type":"Feature","properties":{"kind":"mask"},"geometry":{"type":"Polygon","coordinates":[[[-100.0,20.0],[-60.0,20.0],[-60.0,55.0],[-100.0,55.0],[-100.0,20.0]],[[-82.6447,38.1655],[-82.6365,38.1379],[-82.6212,38.1232],[-82.6,38.1172],[-82.5473,38.0611],[-82.5197,38.0085],[-82.4656,37.9846],[-82.4652,37.9766],[-82.5004,37.9365],[-82.4747,37.9104],[-82.4177,37.8707],[-82.3299,37.7759],[-82.3192,37.7588],[-82.3257,37.7358],[-82.297,37.6873],[-82.1419,37.5951],[-82.1166,37.5596],[-82.0485,37.5311],[-82.0083,37.5334],[-81.998,37.543],[-81.9684,37.5378],[-81.9287,37.5126],[-81.9426,37.5088],[-81.9966,37.4767],[-81.987,37.4549],[-81.9357,37.4382],[-81.9275,37.4132],[-81.9339,37.3727],[-81.9266,37.3589],[-81.8997,37.3412],[-81.8938,37.3301],[-81.8786,37.3315],[-81.8545,37.3008],[-81.8541,37.2914],[-81.7579,37.2741],[-81.7476,37.264],[-81.7443,37.2442],[-81.7279,37.2396],[-81.6837,37.2116],[-81.6786,37.2025],[-81.5573,37.2077],[-81.5073,37.2338],[-81.5036,37.2504],[-81.4097,37.2848],[-81.3884,37.3194],[-81.3773,37.3184],[-81.3624,37.3371],[-81.3201,37.2993],[-81.2251,37.2349],[-81.167,37.2629],[-81.1127,37.2785],[-81.0348,37.2907],[-80.9665,37.2922],[-80.9005,37.315],[-80.8495,37.3469],[-80.8724,37.3725],[-80.859,37.4285],[-80.8116,37.4075],[-80.777,37.3843],[-80.7701,37.3724],[-80.5126,37.4811],[-80.4949,37.4351],[-80.4756,37.423],[-80.3148,37.5009],[-80.3296,37.5365],[-80.3124,37.5462],[-80.2886,37.582],[-80.2403,37.607],[-80.221,37.6278],[-80.2675,37.6461],[-80.2957,37.691],[-80.2639,37.7191],[-80.2573,37.7563],[-80.1622,37.8751],[-80.1305,37.8932],[-80.0025,37.9928],[-79.9598,38.0637],[-79.931,38.1014],[-79.9382,38.1305],[-79.9253,38.1505],[-79.9208,38.1806],[-79.7889,38.2687],[-79.8084,38.3094],[-79.7317,38.3741],[-79.6896,38.4425],[-79.6987,38.4752],[-79.6691,38.5109],[-79.6488,38.5907],[-79.537,38.5509],[-79.4766,38.4572],[-79.3123,38.4119],[-79.2803,38.4255],[-79.2817,38.4313],[-79.2674,38.4383],[-79.21,38.4942],[-79.147,38.6256],[-79.0923,38.6992],[-79.0573,38.7614],[-79.0552,38.7823],[-78.9997,38.8462],[-78.9932,38.8495],[-78.8693,38.763],[-78.7879,38.8852],[-78.7211,38.9219],[-78.7109,38.9102],[-78.6017,38.9646],[-78.5542,39.0197],[-78.5706,39.0331],[-78.5081,39.0886],[-78.4599,39.1134],[-78.4394,39.1322],[-78.4107,39.172],[-78.4379,39.1988],[-78.3997,39.2439],[-78.3405,39.3535],[-78.3621,39.3589],[-78.3468,39.4652],[-77.8282,39.1323],[-77.7714,39.2368],[-77.7688,39.2566],[-77.7504,39.2892],[-77.719,39.3211],[-77.76,39.3388],[-77.7392,39.3857],[-77.8078,39.4902],[-77.845,39.4983],[-77.8654,39.5165],[-77.8886,39.5556],[-77.8845,39.5682],[-77.9026,39.5878],[-77.9466,39.5849],[-78.0097,39.6028],[-78.036,39.6357],[-78.0746,39.6667],[-78.1078,39.6821],[-78.1828,39.6951],[-78.2711,39.6198],[-78.3552,39.6406],[-78.4302,39.6233],[-78.4585,39.5812],[-78.4324,39.5611],[-78.4368,39.5394],[-78.4687,39.5168],[-78.566,39.5194],[-78.6762,39.5406],[-78.7673,39.5874],[-78.7716,39.5943],[-78.7605,39.61],[-78.7875,39.6275],[-78.8248,39.5902],[-78.8747,39.5226],[-78.9685,39.442],[-79.0257,39.4655],[-79.0424,39.4793],[-79.0844,39.4714],[-79.2131,39.368],[-79.2569,39.3561],[-79.4028,39.2501],[-79.4863,39.2067],[-79.4767,39.7211],[-80.5191,39.7223],[-80.519,40.6388],[-80.5608,40.6237],[-80.6272,40.6199],[-80.668,40.5825],[-80.6103,40.491],[-80.5994,40.4823],[-80.6192,40.3818],[-80.6,40.3175],[-80.6167,40.2803],[-80.6521,40.245],[-80.7055,40.153],[-80.7331,40.0588],[-80.7403,39.9709],[-80.8087,39.9126],[-80.8062,39.8971],[-80.8319,39.7057],[-80.8803,39.6209],[-80.9438,39.6069],[-81.0201,39.5554],[-81.2156,39.3887],[-81.2707,39.3859],[-81.3568,39.3433],[-81.3843,39.3435],[-81.3938,39.3518],[-81.4127,39.3946],[-81.4356,39.4085],[-81.4561,39.4093],[-81.5423,39.3529],[-81.6059,39.2759],[-81.6957,39.2429],[-81.7399,39.1908],[-81.7499,39.1865],[-81.7475,39.0959],[-81.8124,39.0821],[-81.8142,39.0735],[-81.8034,39.0477],[-81.7643,39.0152],[-81.7561,38.9338],[-81.7603,38.9258],[-81.8748,38.8812],[-81.9086,38.8786],[-81.9267,38.8915],[-81.9266,38.9011],[-81.8985,38.9296],[-81.9356,38.9895],[-82.0023,39.0279],[-82.0176,39.0301],[-82.036,39.0255],[-82.0516,38.9944],[-82.0932,38.971],[-82.1393,38.8664],[-82.1844,38.8166],[-82.2157,38.7975],[-82.2216,38.7872],[-82.2204,38.7737],[-82.199,38.7577],[-82.1883,38.734],[-82.1721,38.6261],[-82.1774,38.6038],[-82.194,38.5931],[-82.2621,38.5982],[-82.2913,38.579],[-82.3139,38.4682],[-82.3305,38.4445],[-82.5067,38.4101],[-82.5603,38.4044],[-82.5937,38.4218],[-82.5954,38.3827],[-82.5719,38.3158],[-82.5747,38.264],[-82.5841,38.2465],[-82.6042,38.2473],[-82.6447,38.1655]]]}}]}