{
 "type": "FeatureCollection",
 "features": [
  {
   "type": "Feature",
   "geometry": {
    "type": "Point",
    "coordinates": [
     -78.75717860000002,
     39.35489
    ]
   },
   "properties": {
    "kind": "event",
    "slug": "13th-annual-freedom-ride-2026-09-12",
    "name": "13th Annual Freedom Ride",
    "type": "charity-ride",
    "typeLabel": "Charity Ride",
    "region": "Potomac Highlands",
    "date": "2026-09-12T12:00:00.000Z",
    "endDate": "2026-09-12T12:00:00.000Z",
    "locationName": "Romney Cycle",
    "status": "Free",
    "url": "/events/13th-annual-freedom-ride-2026-09-12",
    "link": "facebook.com/VeteransAppreciationandFreedomRide",
    "maps": "https://www.google.com/maps/dir/?api=1&destination=39.35489,-78.75717860000002"
   }
  },
  {
   "type": "Feature",
   "geometry": {
    "type": "Point",
    "coordinates": [
     -78.75717860000002,
     39.35489
    ]
   },
   "properties": {
    "kind": "nearby",
    "slug": "romney-cycles",
    "name": "Romney Cycles",
    "category": "Motorcycle Dealer",
    "type": "moto",
    "lane": "moto",
    "laneLabel": "Moto Service",
    "short": "Multi-brand powersports dealer and service shop at Romney, just off US 50.",
    "region": "Potomac Highlands",
    "county": "Hampshire",
    "certified": false,
    "featured": false,
    "reserved": false,
    "miles": 0.0,
    "url": "/directory/romney-cycles",
    "website": "https://www.romneycycles.com/",
    "tel": "tel:+13048223933",
    "maps": "https://www.google.com/maps/dir/?api=1&destination=39.35489,-78.75717860000002"
   }
  },
  {
   "type": "Feature",
   "geometry": {
    "type": "Point",
    "coordinates": [
     -78.7022996,
     39.3291121
    ]
   },
   "properties": {
    "kind": "nearby",
    "slug": "main-street-grill-romney",
    "name": "Main Street Grill - Romney",
    "category": "Restaurant",
    "type": "food",
    "lane": "food",
    "laneLabel": "Food & Drink",
    "short": "Steakhouse and American kitchen at Romney - the town's sit-down dinner, on the US 50 run.",
    "region": "Potomac Highlands",
    "county": "Hampshire",
    "certified": false,
    "featured": false,
    "reserved": false,
    "miles": 3.46,
    "url": "/directory/main-street-grill-romney",
    "website": "https://www.main-st-grill.com",
    "tel": "tel:+13048224745",
    "maps": "https://www.google.com/maps/dir/?api=1&destination=39.3291121,-78.7022996"
   }
  }
 ]
}
