{
 "type": "FeatureCollection",
 "features": [
  {
   "type": "Feature",
   "geometry": {
    "type": "Point",
    "coordinates": [
     -78.7548364,
     39.341184
    ]
   },
   "properties": {
    "kind": "event",
    "slug": "patriots-poker-run-to-flight-93-2026-10-10",
    "name": "Patriots Poker Run to Flight 93",
    "type": "poker-run",
    "typeLabel": "Poker Run",
    "region": "Potomac Highlands",
    "date": "2026-10-10T12:00:00.000Z",
    "endDate": "2026-10-10T12:00:00.000Z",
    "locationName": "American Legion Post 91",
    "status": "Free",
    "url": "/events/patriots-poker-run-to-flight-93-2026-10-10",
    "link": "https://www.facebook.com/yfwpost1101romneywv",
    "maps": "https://www.google.com/maps/dir/?api=1&destination=39.341184,-78.7548364"
   }
  },
  {
   "type": "Feature",
   "geometry": {
    "type": "Point",
    "coordinates": [
     -78.75717860000002,
     39.35489
    ]
   },
   "properties": {
    "kind": "nearby",
    "slug": "romney-cycles",
    "name": "Romney Cycles",
    "category": "Motorcycle Dealer",
    "type": "moto",
    "lane": "moto",
    "laneLabel": "Moto Service",
    "short": "Multi-brand powersports dealer and service shop at Romney, just off US 50.",
    "region": "Potomac Highlands",
    "county": "Hampshire",
    "certified": false,
    "featured": false,
    "reserved": false,
    "miles": 0.95,
    "url": "/directory/romney-cycles",
    "website": "https://www.romneycycles.com/",
    "tel": "tel:+13048223933",
    "maps": "https://www.google.com/maps/dir/?api=1&destination=39.35489,-78.75717860000002"
   }
  },
  {
   "type": "Feature",
   "geometry": {
    "type": "Point",
    "coordinates": [
     -78.7022996,
     39.3291121
    ]
   },
   "properties": {
    "kind": "nearby",
    "slug": "main-street-grill-romney",
    "name": "Main Street Grill - Romney",
    "category": "Restaurant",
    "type": "food",
    "lane": "food",
    "laneLabel": "Food & Drink",
    "short": "Steakhouse and American kitchen at Romney - the town's sit-down dinner, on the US 50 run.",
    "region": "Potomac Highlands",
    "county": "Hampshire",
    "certified": false,
    "featured": false,
    "reserved": false,
    "miles": 2.96,
    "url": "/directory/main-street-grill-romney",
    "website": "https://www.main-st-grill.com",
    "tel": "tel:+13048224745",
    "maps": "https://www.google.com/maps/dir/?api=1&destination=39.3291121,-78.7022996"
   }
  }
 ]
}
