{
 "type": "FeatureCollection",
 "features": [
  {
   "type": "Feature",
   "geometry": {
    "type": "Point",
    "coordinates": [
     -80.34236159999999,
     39.2814213
    ]
   },
   "properties": {
    "kind": "event",
    "slug": "the-return-of-bike-night-at-ritzy-lunch-2026-09-17",
    "name": "The Return of Bike Night at Ritzy Lunch",
    "type": "bike-night",
    "typeLabel": "Bike Day/Night",
    "region": "Mountaineer Country",
    "date": "2026-09-17T12:00:00.000Z",
    "endDate": "2026-09-17T12:00:00.000Z",
    "locationName": "Ritzy Lunch",
    "status": "Free",
    "url": "/events/the-return-of-bike-night-at-ritzy-lunch-2026-09-17",
    "link": null,
    "maps": "https://www.google.com/maps/dir/?api=1&destination=39.2814213,-80.34236159999999"
   }
  },
  {
   "type": "Feature",
   "geometry": {
    "type": "Point",
    "coordinates": [
     -80.2779955,
     39.2820332
    ]
   },
   "properties": {
    "kind": "nearby",
    "slug": "brickside-bar-grille",
    "name": "Brickside Bar & Grille",
    "category": "Bar",
    "type": "food",
    "lane": "food",
    "laneLabel": "Food & Drink",
    "short": "Sports bar and grill off the I-79 interchange at Bridgeport.",
    "region": "Mountaineer Country",
    "county": "Harrison",
    "certified": false,
    "featured": false,
    "reserved": false,
    "miles": 3.48,
    "url": "/directory/brickside-bar-grille",
    "website": "https://bricksidebargrille.com",
    "tel": null,
    "maps": "https://www.google.com/maps/dir/?api=1&destination=39.2820332,-80.2779955"
   }
  },
  {
   "type": "Feature",
   "geometry": {
    "type": "Point",
    "coordinates": [
     -80.28078839999999,
     39.3065257
    ]
   },
   "properties": {
    "kind": "nearby",
    "slug": "rgs-almost-heaven-harley-davidson",
    "name": "RG's Almost Heaven Harley-Davidson",
    "category": "Motorcycle Dealer",
    "type": "moto",
    "lane": "moto",
    "laneLabel": "Moto Service",
    "short": "Family-run Harley-Davidson dealer near Bridgeport - sales, service, parts, and gear, in business since 1977.",
    "region": "Mountaineer Country",
    "county": "Harrison",
    "certified": false,
    "featured": false,
    "reserved": false,
    "miles": 3.75,
    "url": "/directory/rgs-almost-heaven-harley-davidson",
    "website": "https://www.almostheavenhd.com",
    "tel": "tel:+13046230484",
    "maps": "https://www.google.com/maps/dir/?api=1&destination=39.3065257,-80.28078839999999"
   }
  },
  {
   "type": "Feature",
   "geometry": {
    "type": "Point",
    "coordinates": [
     -80.27972,
     39.30861
    ]
   },
   "properties": {
    "kind": "nearby",
    "slug": "simpson-creek-covered-bridge",
    "name": "Simpson Creek Covered Bridge",
    "category": "Attraction",
    "type": "bridge",
    "lane": "attraction",
    "laneLabel": "See & Do",
    "short": "1881 Multiple-Kingpost covered bridge over Simpson Creek near Bridgeport.",
    "region": "Mountaineer Country",
    "county": "Harrison",
    "certified": false,
    "featured": false,
    "reserved": false,
    "miles": 3.87,
    "url": "/directory/simpson-creek-covered-bridge",
    "website": null,
    "tel": null,
    "maps": "https://www.google.com/maps/dir/?api=1&destination=39.30861,-80.27972"
   }
  },
  {
   "type": "Feature",
   "geometry": {
    "type": "Point",
    "coordinates": [
     -80.2673701,
     39.2729423
    ]
   },
   "properties": {
    "kind": "nearby",
    "slug": "the-social-tap",
    "name": "The Social Tap",
    "category": "Bar",
    "type": "food",
    "lane": "food",
    "laneLabel": "Food & Drink",
    "short": "Taproom and pub on Anmoore Road at Bridgeport, off the I-79 corridor.",
    "region": "Mountaineer Country",
    "county": "Harrison",
    "certified": false,
    "featured": false,
    "reserved": false,
    "miles": 4.09,
    "url": "/directory/the-social-tap",
    "website": "https://www.thesocialtapwv.com",
    "tel": "tel:+13048489218",
    "maps": "https://www.google.com/maps/dir/?api=1&destination=39.2729423,-80.2673701"
   }
  }
 ]
}
